{"type":"FeatureCollection","features":[{"type":"Feature","properties":{"field":"Ekofisk"},"geometry":{"type":"MultiPolygon","coordinates":[[[[2.9373,56.4769],[2.948,56.4835],[2.9372,56.496],[2.9194,56.4986],[2.9043,56.4888],[2.9183,56.4783],[2.9373,56.4769]]]]}},{"type":"Feature","properties":{"field":"Sleipner"},"geometry":{"type":"MultiPolygon","coordinates":[[[[1.681,58.3933],[1.6699,58.3989],[1.6568,58.4245],[1.6461,58.4242],[1.6588,58.39],[1.681,58.3933]]],[[[1.7597,58.5356],[1.7195,58.5323],[1.7298,58.5112],[1.6912,58.5132],[1.6666,58.5016],[1.6647,58.4909],[1.6572,58.5032],[1.6443,58.5061],[1.6372,58.4948],[1.6349,58.4874],[1.6718,58.4792],[1.6622,58.4748],[1.6659,58.4542],[1.6797,58.4585],[1.6677,58.4431],[1.6719,58.4183],[1.6818,58.4147],[1.6796,58.4056],[1.6896,58.396],[1.6786,58.3835],[1.6949,58.3711],[1.6783,58.3718],[1.6786,58.3593],[1.7028,58.3535],[1.7317,58.3663],[1.7386,58.3724],[1.7422,58.4059],[1.7588,58.4065],[1.7586,58.3715],[1.8014,58.3857],[1.7951,58.3955],[1.8045,58.4053],[1.7773,58.4065],[1.7525,58.419],[1.75,58.4315],[1.7358,58.4256],[1.7292,58.4335],[1.7667,58.4519],[1.767,58.4622],[1.7856,58.4776],[1.7833,58.4979],[1.7519,58.533],[1.7597,58.5356]]]]}},{"type":"Feature","properties":{"field":"Sleipner"},"geometry":{"type":"MultiPolygon","coordinates":[[[[1.884,58.3236],[1.8775,58.3195],[1.8853,58.2996],[1.927,58.2984],[1.9687,58.309],[1.884,58.3236]]],[[[1.8928,58.3622],[1.8871,58.364],[1.8833,58.3516],[1.9027,58.3568],[1.8928,58.3622]]]]}},{"type":"Feature","properties":{"field":"Sleipner"},"geometry":{"type":"MultiPolygon","coordinates":[[[[1.8971,58.4071],[1.8749,58.4083],[1.8627,58.4005],[1.8696,58.3781],[1.8582,58.3545],[1.8673,58.3424],[1.8677,58.3216],[1.8841,58.3185],[1.8903,58.3298],[1.9132,58.3243],[1.9179,58.3303],[1.9114,58.3422],[1.931,58.3459],[1.9458,58.3594],[1.938,58.3705],[1.9703,58.3785],[1.9772,58.3868],[2.0097,58.3875],[2.0004,58.3976],[1.9513,58.393],[1.9456,58.4009],[1.8971,58.4071]]],[[[1.9576,58.4573],[1.938,58.4542],[1.9297,58.4449],[1.9632,58.4286],[1.9592,58.4084],[2.0141,58.4122],[2.0191,58.4338],[1.9658,58.4396],[1.9686,58.4491],[1.9576,58.4573]]]]}},{"type":"Feature","properties":{"field":"Valhall"},"geometry":{"type":"MultiPolygon","coordinates":[[[[3.4199,56.1889],[3.4061,56.1834],[3.4321,56.1764],[3.4319,56.1869],[3.4199,56.1889]]],[[[3.4709,56.2225],[3.4714,56.2223],[3.4704,56.2227],[3.4709,56.2225]]],[[[3.4709,56.2225],[3.4595,56.2146],[3.445,56.2178],[3.4468,56.1952],[3.4881,56.1715],[3.5037,56.1726],[3.4811,56.1885],[3.4936,56.1978],[3.4709,56.2225]]]]}},{"type":"Feature","properties":{"field":"Ekofisk"},"geometry":{"type":"MultiPolygon","coordinates":[[[[3.1105,56.9241],[3.0914,56.9297],[3.0284,56.9173],[3.014,56.9226],[2.9841,56.9178],[2.9987,56.8975],[3.0417,56.8819],[3.0567,56.8839],[3.0763,56.8441],[3.1011,56.8326],[3.1095,56.8387],[3.1044,56.8478],[3.1097,56.8567],[3.0755,56.8754],[3.0808,56.8863],[3.0732,56.8911],[3.0846,56.8952],[3.1321,56.8844],[3.1238,56.899],[3.1486,56.9014],[3.1105,56.9241]]]]}},{"type":"Feature","properties":{"field":"Ekofisk"},"geometry":{"type":"MultiPolygon","coordinates":[[[[3.2444,56.5102],[3.2566,56.5564],[3.2501,56.5763],[3.2026,56.584],[3.1718,56.574],[3.1787,56.5439],[3.2074,56.5076],[3.2295,56.4929],[3.2444,56.5102]]]]}},{"type":"Feature","properties":{"field":"Ekofisk"},"geometry":{"type":"MultiPolygon","coordinates":[[[[3.0864,56.5745],[3.0528,56.5664],[3.0645,56.5535],[3.0845,56.5486],[3.1241,56.5626],[3.0864,56.5745]]]]}},{"type":"Feature","properties":{"field":"Ekofisk"},"geometry":{"type":"MultiPolygon","coordinates":[[[[3.2916,56.6549],[3.2758,56.6409],[3.2873,56.6277],[3.3924,56.6333],[3.3823,56.6503],[3.351,56.6469],[3.329,56.6554],[3.2916,56.6549]]]]}},{"type":"Feature","properties":{"field":"Eldfisk"},"geometry":{"type":"MultiPolygon","coordinates":[[[[3.3204,56.3769],[3.329,56.3832],[3.3231,56.3961],[3.2879,56.3978],[3.2957,56.3834],[3.3204,56.3769]]],[[[3.2767,56.3768],[3.2517,56.3917],[3.2571,56.4114],[3.2469,56.4244],[3.2155,56.4344],[3.1985,56.4283],[3.2036,56.4168],[3.2312,56.3983],[3.2278,56.3837],[3.2597,56.3581],[3.2799,56.3595],[3.2767,56.3768]]]]}},{"type":"Feature","properties":{"field":"Eldfisk"},"geometry":{"type":"MultiPolygon","coordinates":[[[[3.2416,56.3612],[3.2416,56.3612],[3.2416,56.3612],[3.2416,56.3612],[3.2416,56.3612]]],[[[3.2416,56.3612],[3.2416,56.3613],[3.2413,56.3614],[3.2416,56.3612]]],[[[3.2416,56.3612],[3.2241,56.3609],[3.2317,56.3467],[3.2229,56.3319],[3.2554,56.2964],[3.2721,56.2942],[3.2736,56.3091],[3.2664,56.3169],[3.2738,56.3229],[3.2414,56.3467],[3.2416,56.3612]]]]}},{"type":"Feature","properties":{"field":"Ekofisk"},"geometry":{"type":"MultiPolygon","coordinates":[[[[3.1185,56.4549],[3.1185,56.4549],[3.1185,56.4549],[3.1185,56.4549]]],[[[3.1185,56.4549],[3.1638,56.4622],[3.1203,56.4703],[3.127,56.476],[3.1061,56.4772],[3.0908,56.4898],[3.056,56.4739],[3.1185,56.4549]]]]}},{"type":"Feature","properties":{"field":"Valhall"},"geometry":{"type":"MultiPolygon","coordinates":[[[[3.4529,56.2495],[3.4277,56.2916],[3.3876,56.3138],[3.3542,56.3184],[3.3313,56.3082],[3.3475,56.2677],[3.3693,56.2491],[3.4291,56.2301],[3.4464,56.2332],[3.4529,56.2495]]]]}},{"type":"Feature","properties":{"field":"Balder"},"geometry":{"type":"MultiPolygon","coordinates":[[[[2.4448,59.2414],[2.4278,59.2486],[2.4058,59.2364],[2.3432,59.2384],[2.3389,59.2278],[2.3575,59.2191],[2.3451,59.2196],[2.3497,59.2129],[2.3169,59.214],[2.299,59.2001],[2.322,59.1966],[2.2911,59.1771],[2.3153,59.1658],[2.3615,59.1626],[2.3703,59.1573],[2.3659,59.1509],[2.3913,59.1649],[2.4253,59.1699],[2.4362,59.1848],[2.4548,59.1853],[2.4928,59.2128],[2.4506,59.2213],[2.426,59.2105],[2.4192,59.215],[2.4314,59.2288],[2.443,59.2297],[2.4374,59.2367],[2.4448,59.2414]]],[[[2.547,59.2752],[2.5344,59.28],[2.5048,59.2705],[2.491,59.2595],[2.5101,59.2627],[2.5007,59.2557],[2.4665,59.2569],[2.4768,59.2427],[2.4908,59.2497],[2.5041,59.246],[2.4822,59.24],[2.4643,59.2446],[2.4772,59.2363],[2.4479,59.228],[2.4714,59.2201],[2.4862,59.2311],[2.5058,59.2317],[2.5037,59.2384],[2.5299,59.2422],[2.5241,59.2554],[2.54,59.2699],[2.5532,59.268],[2.547,59.2752]]],[[[2.4459,59.3292],[2.4246,59.3265],[2.4145,59.3134],[2.3492,59.315],[2.3072,59.2964],[2.3041,59.2741],[2.3199,59.2672],[2.3843,59.2647],[2.3876,59.2693],[2.3745,59.2775],[2.4003,59.2891],[2.4103,59.3041],[2.426,59.2796],[2.4031,59.2788],[2.3977,59.2705],[2.4365,59.275],[2.4699,59.3182],[2.465,59.329],[2.4459,59.3292]]]]}},{"type":"Feature","properties":{"field":"Yggdrasil"},"geometry":{"type":"MultiPolygon","coordinates":[[[[2.3823,59.9302],[2.3987,59.9413],[2.3879,59.9754],[2.3986,59.993],[2.3707,59.9734],[2.3585,59.9372],[2.3823,59.9302]]]]}},{"type":"Feature","properties":{"field":"Oseberg"},"geometry":{"type":"MultiPolygon","coordinates":[[[[2.7058,60.472],[2.7053,60.4829],[2.691,60.4897],[2.6649,60.4743],[2.6715,60.4693],[2.6594,60.4724],[2.6489,60.4562],[2.6732,60.4336],[2.6685,60.4093],[2.649,60.4208],[2.6446,60.4161],[2.651,60.3944],[2.6686,60.3793],[2.6846,60.4067],[2.7056,60.4183],[2.7073,60.4322],[2.6803,60.4338],[2.7111,60.4374],[2.6958,60.4524],[2.7035,60.4483],[2.7058,60.472]]],[[[2.6953,60.5075],[2.6827,60.5256],[2.6723,60.5254],[2.6805,60.4969],[2.6901,60.4893],[2.6953,60.5075]]],[[[2.7203,60.5325],[2.7135,60.5415],[2.6978,60.5409],[2.7018,60.5255],[2.726,60.5087],[2.7128,60.5303],[2.7203,60.5325]]],[[[2.6847,60.5664],[2.673,60.5577],[2.682,60.5567],[2.6787,60.5441],[2.6888,60.5391],[2.6847,60.5664]]],[[[2.7395,60.5427],[2.7241,60.5465],[2.7107,60.5743],[2.7028,60.5686],[2.7198,60.5332],[2.7439,60.5248],[2.7491,60.5327],[2.7395,60.5427]]],[[[2.7217,60.5789],[2.719,60.5951],[2.6952,60.6197],[2.703,60.5905],[2.7217,60.5789]]],[[[2.7295,60.6656],[2.7218,60.6791],[2.7041,60.658],[2.7213,60.6598],[2.7084,60.6556],[2.7238,60.6369],[2.723,60.6165],[2.7122,60.6264],[2.7134,60.6124],[2.723,60.6081],[2.7379,60.6167],[2.7551,60.5822],[2.7548,60.565],[2.7325,60.5982],[2.7413,60.5622],[2.7306,60.5787],[2.7278,60.5739],[2.7468,60.5434],[2.7494,60.5552],[2.7599,60.5293],[2.7368,60.515],[2.7343,60.5215],[2.7281,60.5075],[2.7702,60.4872],[2.782,60.4664],[2.8152,60.4452],[2.8319,60.4137],[2.8549,60.4151],[2.8828,60.4417],[2.8822,60.4659],[2.8931,60.4695],[2.8678,60.531],[2.8605,60.5326],[2.8641,60.5435],[2.8485,60.5527],[2.8347,60.5863],[2.7841,60.6494],[2.7681,60.6439],[2.7418,60.6694],[2.7295,60.6656]],[[2.7723,60.5172],[2.7724,60.5177],[2.7742,60.5171],[2.7758,60.516],[2.7793,60.514],[2.7823,60.5119],[2.7846,60.5109],[2.7848,60.5108],[2.7846,60.5108],[2.7917,60.5083],[2.7815,60.5117],[2.7787,60.5133],[2.776,60.5154],[2.7738,60.5166],[2.7723,60.5172]],[[2.7617,60.5362],[2.7617,60.5402],[2.7618,60.5425],[2.7606,60.5454],[2.7606,60.5457],[2.7631,60.5436],[2.7636,60.5429],[2.7636,60.5421],[2.7625,60.5409],[2.762,60.5398],[2.7622,60.5384],[2.7638,60.5357],[2.7617,60.5362]]]]}},{"type":"Feature","properties":{"field":"Oseberg"},"geometry":{"type":"MultiPolygon","coordinates":[[[[2.9583,60.6457],[2.9581,60.6457],[2.9583,60.6457],[2.9583,60.6457]]],[[[2.9583,60.6457],[2.9769,60.6528],[3.0007,60.6869],[2.9943,60.7102],[3.0009,60.7286],[2.9857,60.7412],[2.8905,60.7341],[2.8961,60.7087],[2.9509,60.6606],[2.9583,60.6457]]]]}},{"type":"Feature","properties":{"field":"Oseberg"},"geometry":{"type":"MultiPolygon","coordinates":[[[[2.7836,60.2662],[2.7928,60.2735],[2.7553,60.2607],[2.726,60.2358],[2.7779,60.2422],[2.7936,60.266],[2.7836,60.2662]]],[[[2.7077,60.2757],[2.7176,60.2838],[2.6911,60.3142],[2.684,60.2954],[2.6895,60.2828],[2.6824,60.2738],[2.7077,60.2757]]],[[[2.8182,60.4494],[2.7381,60.5083],[2.7259,60.4827],[2.7469,60.457],[2.7441,60.4374],[2.7337,60.4486],[2.7356,60.4364],[2.7251,60.4565],[2.7184,60.4471],[2.7324,60.433],[2.7215,60.4295],[2.7282,60.4222],[2.7446,60.4275],[2.7231,60.3975],[2.6861,60.3983],[2.6927,60.3895],[2.6827,60.3621],[2.6858,60.3488],[2.7118,60.3262],[2.7335,60.3252],[2.7345,60.3162],[2.8054,60.3336],[2.7904,60.3293],[2.8064,60.3117],[2.8066,60.3309],[2.8452,60.3418],[2.8546,60.3263],[2.939,60.3084],[2.9228,60.3372],[2.9633,60.4155],[2.9436,60.4135],[2.9293,60.398],[2.9306,60.4044],[2.8996,60.4119],[2.8276,60.4145],[2.831,60.4235],[2.8182,60.4494]]]]}},{"type":"Feature","properties":{"field":"Brage"},"geometry":{"type":"MultiPolygon","coordinates":[[[[3.0045,60.6165],[3.0016,60.6235],[2.9807,60.6036],[2.9894,60.5879],[3.0057,60.5808],[2.9967,60.5565],[3.0036,60.5509],[2.9962,60.5514],[3.0009,60.543],[2.9866,60.504],[3.007,60.5178],[3.028,60.5107],[3.0183,60.4993],[3.0286,60.4981],[3.0324,60.4864],[3.0084,60.4747],[3.0255,60.46],[3.0414,60.4762],[3.0315,60.4808],[3.0628,60.4761],[3.0835,60.4918],[3.0886,60.5048],[3.075,60.5192],[3.0858,60.5191],[3.0959,60.5309],[3.0871,60.5371],[3.1168,60.5465],[3.1106,60.5524],[3.1216,60.5568],[3.1025,60.5555],[3.1452,60.5685],[3.1477,60.5729],[3.1252,60.5685],[3.1409,60.5794],[3.1361,60.5858],[3.1697,60.5913],[3.1654,60.5967],[3.1177,60.5861],[3.2279,60.6249],[3.1846,60.628],[3.1325,60.6121],[3.1529,60.6197],[3.1085,60.6186],[3.0383,60.5908],[3.0365,60.6212],[3.0201,60.6081],[3.0045,60.6165]],[[3.0093,60.5776],[3.0113,60.5793],[3.0115,60.5794],[3.0113,60.5792],[3.0111,60.579],[3.0109,60.5788],[3.0107,60.5785],[3.0104,60.5782],[3.0103,60.5781],[3.0097,60.5777],[3.0096,60.5776],[3.0095,60.5776],[3.009,60.5772],[3.0087,60.5769],[3.0093,60.5776]]]]}},{"type":"Feature","properties":{"field":"Statfjord"},"geometry":{"type":"MultiPolygon","coordinates":[[[[1.9311,61.3763],[1.9318,61.3767],[1.9315,61.3766],[1.9311,61.3763]]],[[[1.9318,61.3767],[1.9318,61.3767],[1.9318,61.3767],[1.9318,61.3767]]],[[[1.9311,61.3763],[1.9148,61.3489],[1.8739,61.3245],[1.7971,61.2449],[1.7943,61.2322],[1.8022,61.228],[1.7714,61.2059],[1.7807,61.2007],[1.761,61.1782],[1.8009,61.1782],[1.801,61.1677],[1.8515,61.1777],[1.8831,61.2139],[1.8749,61.2313],[1.8827,61.2367],[1.8792,61.2431],[1.9046,61.2618],[1.8974,61.2633],[1.9406,61.2741],[1.9239,61.3091],[1.9313,61.3216],[1.9275,61.3304],[1.951,61.3395],[1.9456,61.3469],[1.9529,61.3553],[1.9991,61.3726],[1.9311,61.3763]]]]}},{"type":"Feature","properties":{"field":"Statfjord"},"geometry":{"type":"MultiPolygon","coordinates":[[[[2.0232,61.3644],[2.0165,61.3713],[2.0052,61.3658],[1.9797,61.3426],[1.9737,61.3174],[1.9819,61.3069],[2.0168,61.3247],[2.0179,61.3485],[2.0342,61.3568],[2.0232,61.3644]]]]}},{"type":"Feature","properties":{"field":"Statfjord"},"geometry":{"type":"MultiPolygon","coordinates":[[[[2.0026,61.462],[2.0026,61.462],[2.0026,61.4621],[2.0026,61.462]]],[[[2.0026,61.462],[1.9878,61.4683],[1.9445,61.4538],[1.9143,61.4538],[1.8863,61.4306],[1.9235,61.4262],[2.0026,61.462]]]]}},{"type":"Feature","properties":{"field":"Gullfaks"},"geometry":{"type":"MultiPolygon","coordinates":[[[[2.1387,61.1429],[2.1082,61.1646],[2.1034,61.1608],[2.1076,61.1456],[2.1242,61.1391],[2.1387,61.1429]]],[[[2.1116,61.1737],[2.1148,61.1872],[2.1076,61.1889],[2.1116,61.1737]]],[[[2.1446,61.2247],[2.1381,61.2268],[2.1241,61.2063],[2.1164,61.2086],[2.1015,61.1964],[2.1259,61.1955],[2.1446,61.2247]]],[[[2.2884,61.2429],[2.2604,61.251],[2.255,61.2404],[2.2356,61.248],[2.2141,61.2269],[2.2081,61.2413],[2.2057,61.2204],[2.1929,61.2359],[2.1781,61.2081],[2.1681,61.2314],[2.1587,61.2222],[2.1694,61.2133],[2.1593,61.1906],[2.1499,61.1813],[2.1497,61.1925],[2.141,61.1916],[2.1366,61.1707],[2.2021,61.1634],[2.2296,61.1808],[2.2421,61.1798],[2.2476,61.1928],[2.2432,61.1757],[2.2722,61.1699],[2.2642,61.1806],[2.2697,61.1922],[2.2841,61.1911],[2.27,61.1811],[2.2739,61.1769],[2.3099,61.1947],[2.3121,61.2173],[2.2884,61.2429]]]]}},{"type":"Feature","properties":{"field":"Gullfaks"},"geometry":{"type":"MultiPolygon","coordinates":[[[[1.9367,61.0131],[1.9394,61.0248],[1.9532,61.0343],[1.9226,61.0418],[1.9367,61.0131]]],[[[2.0706,61.0706],[2.068,61.061],[2.092,61.0663],[2.0706,61.0706]]],[[[1.9507,61.0683],[1.9542,61.0563],[1.9661,61.0678],[1.9507,61.0683]]],[[[2.1184,61.052],[2.1482,61.0745],[2.1416,61.0907],[2.1278,61.0801],[2.1184,61.052]]],[[[1.9665,61.0713],[1.9767,61.0778],[1.9613,61.086],[1.9665,61.0713]]],[[[2.0084,61.0771],[2.0012,61.0895],[1.9879,61.0815],[2.007,61.0584],[2.0018,61.0496],[1.993,61.0509],[1.9898,61.0352],[1.9912,61.0294],[2.0012,61.0363],[2.0008,61.0178],[2.0258,61.0423],[2.0344,61.0293],[2.047,61.0328],[2.0561,61.0621],[2.0283,61.0774],[2.0256,61.0721],[2.0111,61.0819],[2.0084,61.0771]]],[[[1.983,61.0813],[1.9928,61.0902],[1.9822,61.0925],[1.983,61.0813]]],[[[2.0799,61.1068],[2.0867,61.0959],[2.0933,61.1048],[2.0799,61.1068]]],[[[2.0584,61.1087],[2.0586,61.0987],[2.0655,61.1077],[2.0584,61.1087]]],[[[2.0584,61.1087],[2.0584,61.1087],[2.0584,61.1087],[2.0584,61.1087]]],[[[2.0905,61.1232],[2.0911,61.1288],[2.0774,61.1294],[2.0794,61.1216],[2.0905,61.1232]]],[[[2.1017,61.1087],[2.1097,61.1146],[2.0981,61.1315],[2.0933,61.1204],[2.1017,61.1087]]],[[[2.2388,61.1468],[2.134,61.1361],[2.1288,61.1249],[2.1372,61.1234],[2.1746,61.1351],[2.2153,61.1346],[2.1659,61.1196],[2.1635,61.0797],[2.1548,61.0696],[2.1802,61.0573],[2.2067,61.0693],[2.2241,61.0612],[2.2419,61.0709],[2.2465,61.0865],[2.2834,61.1045],[2.2837,61.1175],[2.2685,61.1277],[2.266,61.1401],[2.2477,61.1358],[2.2388,61.1468]],[[2.1862,61.0675],[2.1862,61.0676],[2.1862,61.0675],[2.1862,61.0675]]],[[[2.0357,61.1107],[2.0435,61.1217],[2.0292,61.1364],[2.0218,61.1109],[2.0357,61.1107]]],[[[2.0077,61.1063],[2.0263,61.1225],[2.0133,61.1389],[2.0077,61.1063]]],[[[2.0455,61.1724],[2.042,61.1799],[2.0277,61.181],[2.023,61.1692],[2.0455,61.1724]]]]}},{"type":"Feature","properties":{"field":"Snorre"},"geometry":{"type":"MultiPolygon","coordinates":[[[[2.255,61.5847],[2.2461,61.5833],[2.2642,61.5776],[2.2577,61.5713],[2.2134,61.5751],[2.2136,61.5684],[2.1962,61.5623],[2.202,61.5557],[2.1817,61.5448],[2.2081,61.546],[2.2029,61.544],[2.2126,61.5401],[2.2062,61.5347],[2.1828,61.5362],[2.1543,61.5153],[2.1451,61.5299],[2.1328,61.5286],[2.0789,61.4937],[2.1048,61.4929],[2.1007,61.4886],[2.1077,61.4816],[2.0668,61.4501],[2.0571,61.4254],[2.0631,61.4197],[2.0556,61.4156],[2.0646,61.4143],[2.0539,61.3995],[2.0989,61.4149],[2.1035,61.4093],[2.1674,61.4165],[2.2403,61.4786],[2.2698,61.4926],[2.2674,61.5272],[2.2867,61.5408],[2.2876,61.5572],[2.2771,61.5786],[2.255,61.5847]]]]}},{"type":"Feature","properties":{"field":"Gullfaks"},"geometry":{"type":"MultiPolygon","coordinates":[[[[2.0679,61.2664],[2.0682,61.2661],[2.0682,61.2669],[2.0679,61.2664]]],[[[2.0679,61.2664],[2.0905,61.2753],[2.0862,61.2627],[2.0981,61.264],[2.1124,61.2455],[2.1336,61.267],[2.1313,61.2598],[2.1417,61.2598],[2.163,61.2717],[2.1511,61.2788],[2.1834,61.2779],[2.173,61.2915],[2.1595,61.2894],[2.1381,61.3394],[2.125,61.3344],[2.0831,61.34],[2.0917,61.3311],[2.0775,61.331],[2.0743,61.3188],[2.0581,61.317],[2.0697,61.3089],[2.0359,61.3059],[2.0488,61.2926],[2.0384,61.2707],[2.0679,61.2664]],[[2.1339,61.2676],[2.134,61.2678],[2.1341,61.268],[2.1341,61.2681],[2.1342,61.2683],[2.1343,61.2685],[2.1343,61.2686],[2.1344,61.2688],[2.1345,61.269],[2.1346,61.2692],[2.1346,61.2693],[2.1347,61.2695],[2.1348,61.2697],[2.1349,61.2699],[2.1349,61.27],[2.135,61.2702],[2.135,61.2703],[2.1349,61.2689],[2.1339,61.2676],[2.1339,61.2676]],[[2.1345,61.2776],[2.1505,61.2885],[2.1492,61.2788],[2.1353,61.2709],[2.1345,61.2776]]]]}},{"type":"Feature","properties":{"field":"Snorre"},"geometry":{"type":"MultiPolygon","coordinates":[[[[2.04,61.3696],[2.0486,61.3733],[2.0352,61.3761],[2.0068,61.3492],[2.0083,61.326],[2.0268,61.3186],[2.0331,61.3056],[2.0823,61.3096],[2.0818,61.3473],[2.0687,61.3509],[2.0805,61.3507],[2.0465,61.3561],[2.051,61.3694],[2.04,61.3696]]],[[[2.0707,61.4451],[2.0638,61.4443],[2.0515,61.419],[2.0311,61.4144],[2.0293,61.4023],[2.0449,61.4],[2.0265,61.3923],[2.0262,61.3832],[2.0776,61.3994],[2.082,61.3869],[2.0923,61.3891],[2.0879,61.3823],[2.095,61.3654],[2.0874,61.3604],[2.0946,61.3515],[2.0804,61.3499],[2.0853,61.3459],[2.1149,61.3385],[2.1189,61.3521],[2.1086,61.3619],[2.1179,61.3679],[2.1514,61.3449],[2.1466,61.3623],[2.1611,61.3746],[2.1496,61.388],[2.1643,61.3964],[2.1568,61.3995],[2.1661,61.414],[2.1333,61.413],[2.1373,61.4061],[2.127,61.3896],[2.1293,61.4031],[2.1213,61.4114],[2.1037,61.4098],[2.102,61.4177],[2.0861,61.4112],[2.0837,61.421],[2.0612,61.4153],[2.0707,61.4451]],[[2.036,61.4066],[2.0361,61.4066],[2.0361,61.4066],[2.0362,61.4067],[2.0362,61.4067],[2.0364,61.406],[2.035,61.4054],[2.035,61.4054],[2.035,61.4054],[2.0351,61.4054],[2.0351,61.4054],[2.0351,61.4055],[2.0351,61.4055],[2.0351,61.4055],[2.0351,61.4055],[2.0351,61.4055],[2.0351,61.4055],[2.0351,61.4056],[2.0351,61.4056],[2.0351,61.4056],[2.0352,61.4056],[2.0352,61.4056],[2.0352,61.4057],[2.0352,61.4057],[2.0352,61.4057],[2.0352,61.4057],[2.0353,61.4057],[2.0353,61.4058],[2.0353,61.4058],[2.0353,61.4058],[2.0353,61.4058],[2.0353,61.4058],[2.0353,61.4059],[2.0353,61.4059],[2.0354,61.4059],[2.0354,61.4059],[2.0354,61.4059],[2.0354,61.406],[2.0354,61.406],[2.0354,61.406],[2.0354,61.406],[2.0354,61.406],[2.0355,61.4061],[2.0355,61.4061],[2.0355,61.4061],[2.0355,61.4061],[2.0355,61.4061],[2.0355,61.4062],[2.0356,61.4062],[2.0356,61.4062],[2.0356,61.4062],[2.0356,61.4062],[2.0356,61.4063],[2.0356,61.4063],[2.0356,61.4063],[2.0356,61.4063],[2.0357,61.4063],[2.0357,61.4064],[2.0357,61.4064],[2.0357,61.4064],[2.0357,61.4064],[2.0357,61.4064],[2.0358,61.4065],[2.0358,61.4065],[2.0358,61.4065],[2.0358,61.4065],[2.0359,61.4065],[2.0359,61.4066],[2.036,61.4066],[2.036,61.4066],[2.036,61.4066]],[[2.0416,61.409],[2.0416,61.409],[2.0416,61.409],[2.0416,61.409]],[[2.0417,61.409],[2.0417,61.409],[2.0416,61.409],[2.0417,61.409]],[[2.0417,61.409],[2.0418,61.409],[2.0417,61.409],[2.0417,61.409]],[[2.0458,61.4104],[2.0458,61.4104],[2.0441,61.4095],[2.0418,61.409],[2.0418,61.409],[2.0419,61.409],[2.0419,61.409],[2.0419,61.4091],[2.042,61.4091],[2.042,61.4091],[2.0421,61.4091],[2.0421,61.4091],[2.0421,61.4091],[2.0422,61.4091],[2.0422,61.4091],[2.0423,61.4092],[2.0423,61.4092],[2.0423,61.4092],[2.0424,61.4092],[2.0424,61.4092],[2.0425,61.4092],[2.0425,61.4092],[2.0426,61.4092],[2.0426,61.4092],[2.0426,61.4093],[2.0427,61.4093],[2.0427,61.4093],[2.0428,61.4093],[2.0428,61.4093],[2.0428,61.4093],[2.0429,61.4093],[2.0429,61.4093],[2.043,61.4093],[2.043,61.4094],[2.043,61.4094],[2.0431,61.4094],[2.0431,61.4094],[2.0432,61.4094],[2.0432,61.4094],[2.0432,61.4094],[2.0433,61.4094],[2.0433,61.4095],[2.0434,61.4095],[2.0434,61.4095],[2.0434,61.4095],[2.0435,61.4095],[2.0435,61.4095],[2.0436,61.4096],[2.0436,61.4096],[2.0437,61.4096],[2.0437,61.4096],[2.0437,61.4096],[2.0438,61.4097],[2.0438,61.4097],[2.0439,61.4097],[2.0439,61.4097],[2.0439,61.4097],[2.044,61.4097],[2.044,61.4098],[2.0441,61.4098],[2.0441,61.4098],[2.0441,61.4098],[2.0442,61.4098],[2.0442,61.4099],[2.0443,61.4099],[2.0443,61.4099],[2.0443,61.4099],[2.0444,61.4099],[2.0444,61.4099],[2.0445,61.41],[2.0445,61.41],[2.0445,61.41],[2.0446,61.41],[2.0446,61.41],[2.0447,61.41],[2.0447,61.41],[2.0447,61.41],[2.0448,61.4101],[2.0448,61.4101],[2.0449,61.4101],[2.0449,61.4101],[2.045,61.4101],[2.045,61.4101],[2.045,61.4101],[2.0451,61.4101],[2.0451,61.4102],[2.0452,61.4102],[2.0452,61.4102],[2.0452,61.4102],[2.0453,61.4102],[2.0453,61.4102],[2.0454,61.4102],[2.0454,61.4102],[2.0454,61.4102],[2.0455,61.4103],[2.0455,61.4103],[2.0456,61.4103],[2.0456,61.4103],[2.0456,61.4103],[2.0457,61.4103],[2.0457,61.4103],[2.0458,61.4103],[2.0458,61.4104]]]]}},{"type":"Feature","properties":{"field":"Visund"},"geometry":{"type":"MultiPolygon","coordinates":[[[[2.4277,61.3102],[2.4412,61.3222],[2.4114,61.3176],[2.4181,61.3062],[2.4277,61.3102]]],[[[2.6258,61.4333],[2.604,61.4238],[2.6068,61.4161],[2.6194,61.4173],[2.6258,61.4333]]],[[[2.6029,61.4623],[2.5494,61.4345],[2.5033,61.3869],[2.477,61.3879],[2.4357,61.3755],[2.3902,61.3349],[2.3521,61.3296],[2.3342,61.3158],[2.3459,61.312],[2.4375,61.3272],[2.4549,61.3379],[2.46,61.3526],[2.4924,61.3651],[2.4703,61.3471],[2.4946,61.3442],[2.5138,61.3736],[2.5537,61.3823],[2.5612,61.3948],[2.5618,61.3801],[2.5755,61.3791],[2.5841,61.3889],[2.575,61.3944],[2.5899,61.41],[2.5841,61.4238],[2.5967,61.4346],[2.6004,61.4275],[2.6117,61.4309],[2.6235,61.4419],[2.6123,61.4483],[2.6181,61.4606],[2.6029,61.4623]],[[2.4341,61.3467],[2.4378,61.3498],[2.433,61.3452],[2.4318,61.3446],[2.4341,61.3467]]]]}},{"type":"Feature","properties":{"field":"Njord"},"geometry":{"type":"MultiPolygon","coordinates":[[[[7.1038,64.2978],[7.0758,64.2885],[7.0627,64.2738],[7.067,64.2664],[7.1033,64.2867],[7.1038,64.2978]]],[[[7.2208,64.2989],[7.1419,64.2838],[7.148,64.2923],[7.1038,64.2656],[7.1504,64.2576],[7.1598,64.2365],[7.2043,64.2475],[7.2342,64.2631],[7.2208,64.2989]]],[[[7.1078,64.2791],[7.1626,64.3077],[7.1286,64.2995],[7.1028,64.2818],[7.1078,64.2791]]]]}},{"type":"Feature","properties":{"field":"Draugen"},"geometry":{"type":"MultiPolygon","coordinates":[[[[7.7125,64.2242],[7.7108,64.2246],[7.7124,64.2235],[7.713,64.2235],[7.7125,64.2242]]],[[[7.7125,64.2242],[7.7511,64.266],[7.7445,64.2678],[7.7533,64.2733],[7.7499,64.2797],[7.7777,64.2954],[7.7877,64.3102],[7.7824,64.3174],[7.8116,64.3456],[7.8318,64.3517],[7.8188,64.3618],[7.8254,64.37],[7.8076,64.3746],[7.8134,64.4003],[7.8021,64.4053],[7.7984,64.4196],[7.7722,64.4132],[7.77,64.4059],[7.7792,64.4032],[7.7463,64.3797],[7.7378,64.3808],[7.7402,64.3695],[7.7299,64.3743],[7.7328,64.3795],[7.7156,64.3776],[7.7073,64.3719],[7.7116,64.3623],[7.6946,64.3612],[7.7052,64.3563],[7.6983,64.3506],[7.7059,64.3416],[7.7127,64.3439],[7.6885,64.3243],[7.6919,64.318],[7.7075,64.328],[7.7367,64.3222],[7.7447,64.3115],[7.7216,64.2937],[7.7474,64.2936],[7.7134,64.275],[7.6852,64.2745],[7.6832,64.264],[7.6945,64.2638],[7.6907,64.2574],[7.6971,64.2551],[7.677,64.2434],[7.6946,64.2342],[7.7178,64.2353],[7.7125,64.2242]]],[[[7.7,64.4],[7.7189,64.4066],[7.7231,64.4166],[7.7136,64.4196],[7.6517,64.3926],[7.7,64.4]]]]}},{"type":"Feature","properties":{"field":"Åsgard"},"geometry":{"type":"MultiPolygon","coordinates":[[[[6.9089,65.0594],[6.8481,65.0345],[6.8315,65.0137],[6.8333,65.0036],[6.8398,64.9968],[6.8693,64.9986],[6.8666,64.9886],[6.8844,64.9827],[6.995,65.0287],[6.9779,65.0421],[6.9788,65.0606],[6.9089,65.0594]]],[[[7.6033,64.9624],[7.5814,64.9751],[7.5809,64.9998],[7.537,65.0212],[7.5197,65.0442],[7.497,65.0579],[7.4866,65.1047],[7.4756,65.1145],[7.4677,65.1108],[7.4623,65.0988],[7.4722,65.0834],[7.4665,65.0668],[7.4938,65.0497],[7.4768,65.0459],[7.4816,65.0277],[7.4893,65.0178],[7.518,65.0089],[7.4915,65.0014],[7.4893,64.9875],[7.6095,64.9509],[7.6317,64.934],[7.6248,64.9295],[7.651,64.9306],[7.6697,64.9404],[7.6475,64.9203],[7.701,64.9457],[7.6963,64.9554],[7.6911,64.943],[7.6917,64.9517],[7.664,64.9559],[7.654,64.9724],[7.6404,64.9599],[7.6389,64.9858],[7.6239,64.9742],[7.6208,64.9579],[7.6033,64.9624]]],[[[6.9778,65.2259],[6.9853,65.2342],[6.9612,65.2246],[6.9437,65.2326],[6.899,65.2171],[6.8869,65.2118],[6.9015,65.1938],[6.8793,65.1894],[6.6824,65.1837],[6.6736,65.1506],[6.6528,65.1228],[6.59,65.0676],[6.5635,65.0541],[6.5562,65.0316],[6.538,65.0223],[6.5933,64.9847],[6.6125,64.9933],[6.6927,64.9723],[6.732,64.9499],[6.7466,64.953],[6.7364,64.9729],[6.7574,64.9807],[6.7627,64.9925],[6.7489,65.0076],[6.6746,65.0393],[6.6701,65.0481],[6.7489,65.0954],[6.8254,65.1554],[6.8477,65.16],[6.8898,65.149],[6.9303,65.1588],[6.9548,65.1776],[6.9633,65.2074],[6.9778,65.2259]],[[6.9385,65.2077],[6.9408,65.2102],[6.947,65.2126],[6.9477,65.2127],[6.9465,65.2107],[6.9444,65.2083],[6.9406,65.2067],[6.9368,65.2056],[6.9362,65.2054],[6.9385,65.2077]]],[[[6.8972,65.2267],[6.9411,65.2643],[6.9015,65.2595],[6.8449,65.233],[6.8972,65.2267]]]]}},{"type":"Feature","properties":{"field":"Heidrun"},"geometry":{"type":"MultiPolygon","coordinates":[[[[7.3439,65.4112],[7.3067,65.3942],[7.3134,65.3911],[7.295,65.3785],[7.2956,65.369],[7.2419,65.3303],[7.2618,65.31],[7.274,65.3128],[7.2958,65.3031],[7.3115,65.2765],[7.3732,65.3203],[7.3468,65.34],[7.3596,65.356],[7.3567,65.3637],[7.4253,65.3987],[7.3066,65.3737],[7.3216,65.3787],[7.3288,65.3929],[7.3169,65.3929],[7.3405,65.4009],[7.3439,65.4112]],[[7.3437,65.3738],[7.3555,65.3838],[7.3684,65.3831],[7.3668,65.3766],[7.3336,65.3683],[7.3437,65.3738]]]]}},{"type":"Feature","properties":{"field":"Norne"},"geometry":{"type":"MultiPolygon","coordinates":[[[[8.1321,66.0234],[8.1727,66.048],[8.1219,66.0276],[8.1321,66.0234]]],[[[8.0893,66.0231],[8.109,66.0376],[8.1162,66.0557],[8.0823,66.0479],[8.0186,66.0051],[8.038,65.9904],[8.1073,66.018],[8.0893,66.0231]]]]}},{"type":"Feature","properties":{"field":"Ekofisk"},"geometry":{"type":"MultiPolygon","coordinates":[[[[2.4078,57.0801],[2.3937,57.0732],[2.397,57.061],[2.4285,57.0503],[2.4472,57.0575],[2.4408,57.0726],[2.4078,57.0801]]]]}},{"type":"Feature","properties":{"field":"Ula"},"geometry":{"type":"MultiPolygon","coordinates":[[[[2.801,57.1318],[2.7981,57.1257],[2.8215,57.1045],[2.8699,57.0865],[2.8589,57.0782],[2.8659,57.0663],[2.9031,57.0738],[2.904,57.0939],[2.8737,57.1239],[2.801,57.1318]]]]}},{"type":"Feature","properties":{"field":"Yme"},"geometry":{"type":"MultiPolygon","coordinates":[[[[4.3532,57.7279],[4.384,57.7615],[4.3521,57.7579],[4.346,57.7304],[4.3532,57.7279]]],[[[4.337,57.7407],[4.3359,57.7603],[4.3906,57.7847],[4.3485,57.786],[4.3082,57.775],[4.3118,57.7455],[4.337,57.7407]]],[[[4.5428,57.8076],[4.5308,57.8159],[4.531,57.8245],[4.5428,57.8332],[4.5443,57.8507],[4.5296,57.854],[4.5299,57.8822],[4.5149,57.8843],[4.5126,57.8617],[4.4952,57.8288],[4.5308,57.783],[4.5464,57.7762],[4.5582,57.793],[4.5428,57.8076]]]]}},{"type":"Feature","properties":{"field":"Troll"},"geometry":{"type":"MultiPolygon","coordinates":[[[[3.6278,60.9766],[3.6184,60.9633],[3.5859,60.9465],[3.5101,60.9237],[3.5543,60.9077],[3.5719,60.8921],[3.5789,60.8663],[3.537,60.9035],[3.5203,60.9052],[3.5097,60.8909],[3.492,60.8856],[3.464,60.9002],[3.4472,60.8984],[3.4429,60.8921],[3.4568,60.8822],[3.4372,60.8895],[3.4206,60.8751],[3.4094,60.8509],[3.4129,60.8191],[3.421,60.8137],[3.4082,60.7955],[3.4074,60.7525],[3.4414,60.733],[3.46,60.764],[3.4441,60.7767],[3.4618,60.7686],[3.4805,60.7726],[3.4261,60.8058],[3.4311,60.812],[3.4588,60.7906],[3.4703,60.7976],[3.5116,60.772],[3.5192,60.7756],[3.4798,60.8009],[3.4632,60.8016],[3.425,60.8282],[3.44,60.8265],[3.4224,60.8413],[3.446,60.8395],[3.4664,60.8277],[3.4791,60.8467],[3.5192,60.815],[3.5255,60.7981],[3.5258,60.7773],[3.509,60.7618],[3.4879,60.7188],[3.4449,60.6953],[3.4543,60.6793],[3.4453,60.6725],[3.5397,60.7061],[3.5292,60.7126],[3.5809,60.7121],[3.615,60.7321],[3.6389,60.7235],[3.6666,60.6942],[3.68,60.7005],[3.6822,60.7148],[3.6578,60.7393],[3.6409,60.7404],[3.6436,60.7484],[3.6214,60.7733],[3.6417,60.7648],[3.6444,60.7704],[3.6109,60.8007],[3.6328,60.7933],[3.6005,60.8172],[3.6109,60.8218],[3.691,60.8098],[3.6549,60.824],[3.6523,60.8292],[3.6628,60.8262],[3.5951,60.8804],[3.6164,60.8826],[3.6034,60.8994],[3.6106,60.9018],[3.6013,60.9127],[3.6093,60.9163],[3.6459,60.8781],[3.6692,60.8747],[3.6922,60.8429],[3.7019,60.8259],[3.6931,60.8142],[3.6955,60.7949],[3.7477,60.7175],[3.7277,60.6919],[3.6811,60.6646],[3.6357,60.6167],[3.6138,60.6065],[3.6058,60.5848],[3.6282,60.5558],[3.6347,60.5187],[3.6654,60.5187],[3.7139,60.5476],[3.7545,60.5618],[3.7845,60.5628],[3.9078,60.5023],[3.9125,60.5588],[3.931,60.5904],[3.9293,60.6121],[3.9378,60.6247],[3.9226,60.6511],[3.9265,60.6615],[3.952,60.6792],[4.0012,60.6846],[4.0042,60.695],[3.8739,60.7538],[3.8419,60.7816],[3.7763,60.8007],[3.7458,60.8378],[3.6975,60.8576],[3.6877,60.8686],[3.712,60.8653],[3.664,60.9016],[3.6617,60.9162],[3.6744,60.9189],[3.6357,60.9402],[3.623,60.957],[3.6627,60.9407],[3.6566,60.9609],[3.6278,60.9766]],[[3.7423,60.8046],[3.7423,60.8046],[3.7425,60.804],[3.7423,60.8046]],[[3.7093,60.813],[3.7083,60.8134],[3.7048,60.8148],[3.7047,60.8149],[3.7093,60.813],[3.7193,60.8104],[3.7251,60.8083],[3.7203,60.81],[3.7177,60.8108],[3.7093,60.813]]],[[[3.6278,60.9766],[3.6279,60.9766],[3.6278,60.9766],[3.6278,60.9766]]]]}},{"type":"Feature","properties":{"field":"Statfjord"},"geometry":{"type":"MultiPolygon","coordinates":[[[[1.9792,61.4744],[1.9993,61.4642],[2.0176,61.4752],[2.018,61.4864],[1.9792,61.4744]]]]}},{"type":"Feature","properties":{"field":"Oseberg"},"geometry":{"type":"MultiPolygon","coordinates":[[[[2.6483,60.5016],[2.628,60.5392],[2.6309,60.5156],[2.6166,60.4996],[2.6136,60.4693],[2.5948,60.4452],[2.6035,60.4306],[2.5924,60.4366],[2.584,60.4246],[2.614,60.4168],[2.61,60.4227],[2.6431,60.4642],[2.6619,60.4715],[2.6483,60.5016]]]]}},{"type":"Feature","properties":{"field":"Ula"},"geometry":{"type":"MultiPolygon","coordinates":[[[[2.9526,56.9929],[2.9325,56.9936],[2.9449,56.9791],[2.8985,56.9818],[2.942,56.9743],[2.9785,56.9507],[3.0114,56.9422],[3.0072,56.9538],[2.9528,56.9838],[2.9598,56.987],[2.9526,56.9929]]]]}},{"type":"Feature","properties":{"field":"Grane"},"geometry":{"type":"MultiPolygon","coordinates":[[[[2.5216,59.208],[2.5151,59.2161],[2.4906,59.2187],[2.4866,59.1994],[2.4608,59.1805],[2.4614,59.1451],[2.4359,59.1277],[2.4307,59.1134],[2.4953,59.1325],[2.4914,59.1492],[2.5061,59.1759],[2.5394,59.1855],[2.5418,59.2],[2.5216,59.208]]]]}},{"type":"Feature","properties":{"field":"Kvitebjørn"},"geometry":{"type":"MultiPolygon","coordinates":[[[[2.5252,61.0595],[2.567,61.075],[2.552,61.0941],[2.6009,61.1256],[2.4947,61.1399],[2.4775,61.1249],[2.4543,61.0783],[2.4296,61.0654],[2.4373,61.0468],[2.4672,61.0545],[2.4804,61.0426],[2.5159,61.0505],[2.5122,61.0547],[2.5252,61.0595]]]]}},{"type":"Feature","properties":{"field":"Troll"},"geometry":{"type":"MultiPolygon","coordinates":[[[[3.4701,61.0365],[3.4502,61.0356],[3.433,61.0246],[3.4481,61.0222],[3.4412,61.0176],[3.4756,61.0194],[3.4802,61.0155],[3.4747,61.0117],[3.4936,61.0087],[3.4701,61.0365]]],[[[3.561,61.0378],[3.5368,61.03],[3.5219,61.0206],[3.5238,61.012],[3.5004,61.0015],[3.5051,60.9915],[3.5256,61.0016],[3.5087,60.9929],[3.4773,60.9476],[3.4962,60.9471],[3.4933,60.9563],[3.5278,60.9786],[3.5209,60.9859],[3.5415,61.0064],[3.5237,61.0045],[3.5302,61.0191],[3.561,61.0378]]],[[[3.5967,61.0504],[3.5797,61.0492],[3.5734,61.0405],[3.5808,61.0117],[3.5891,61.0179],[3.5902,61.0122],[3.5805,60.9851],[3.595,61.0108],[3.6135,61.0069],[3.6318,61.035],[3.6304,61.0464],[3.6199,61.0443],[3.6219,61.0364],[3.617,61.0475],[3.5967,61.0504]]],[[[3.5453,61.0768],[3.5318,61.074],[3.5192,61.0409],[3.5303,61.0357],[3.5467,61.0418],[3.5338,61.0517],[3.5484,61.0614],[3.5381,61.0699],[3.5504,61.0719],[3.5453,61.0768]]],[[[3.55,61.1148],[3.5236,61.1065],[3.5052,61.08],[3.4776,61.0611],[3.4819,61.0486],[3.5244,61.0693],[3.55,61.1148]]]]}},{"type":"Feature","properties":{"field":"Sleipner"},"geometry":{"type":"MultiPolygon","coordinates":[[[[2.0164,58.2964],[2.0162,58.2965],[2.0162,58.2964],[2.0164,58.2964]]],[[[2.0164,58.2964],[1.9979,58.2913],[2.003,58.2766],[2.0372,58.2778],[2.0357,58.2891],[2.0164,58.2964]]],[[[2.0661,58.2954],[2.0651,58.3014],[2.0499,58.3014],[2.0394,58.2789],[2.1083,58.2653],[2.0923,58.2912],[2.0661,58.2954]]]]}},{"type":"Feature","properties":{"field":"Åsgard"},"geometry":{"type":"MultiPolygon","coordinates":[[[[7.6778,64.7295],[7.6645,64.7375],[7.6525,64.7277],[7.6555,64.6743],[7.633,64.6481],[7.6625,64.6227],[7.6655,64.6104],[7.6779,64.6393],[7.6742,64.659],[7.6858,64.6705],[7.6796,64.6794],[7.6983,64.6816],[7.6911,64.7011],[7.6974,64.7186],[7.6778,64.7295]]]]}},{"type":"Feature","properties":{"field":"Kristin"},"geometry":{"type":"MultiPolygon","coordinates":[[[[6.3533,64.8494],[6.3515,64.857],[6.337,64.8455],[6.3224,64.821],[6.3432,64.824],[6.3533,64.8494]]],[[[6.632,64.903],[6.6143,64.9009],[6.5843,64.8628],[6.5253,64.816],[6.5068,64.7861],[6.5249,64.7891],[6.55,64.8155],[6.5677,64.8227],[6.6077,64.8607],[6.632,64.903]]],[[[6.2925,64.912],[6.2862,64.9053],[6.3047,64.9002],[6.2987,64.8852],[6.3125,64.8967],[6.3264,64.8965],[6.3241,64.9077],[6.3107,64.9033],[6.2925,64.912]]],[[[6.4302,65.052],[6.4158,65.053],[6.3774,65.0162],[6.3717,65.0063],[6.3877,64.9902],[6.3746,64.9865],[6.3703,64.9748],[6.3805,64.955],[6.3759,64.9196],[6.3974,64.898],[6.402,64.8829],[6.4321,64.8667],[6.4369,64.8556],[6.4682,64.8813],[6.4331,64.8887],[6.4245,64.9016],[6.4309,64.9112],[6.4118,64.9055],[6.4158,64.9135],[6.4049,64.9211],[6.4354,64.9432],[6.4306,64.9512],[6.4535,64.96],[6.4675,64.9841],[6.4401,65.0129],[6.44,65.0217],[6.4792,65.0239],[6.4534,65.0343],[6.4618,65.0496],[6.4302,65.052]]]]}},{"type":"Feature","properties":{"field":"Snøhvit"},"geometry":{"type":"MultiPolygon","coordinates":[[[[20.3253,71.3652],[20.3245,71.3652],[20.3241,71.363],[20.3253,71.3652]]],[[[20.3253,71.3652],[20.3253,71.3654],[20.3253,71.3652],[20.3253,71.3652]]],[[[20.3253,71.3652],[20.3055,71.3231],[20.2816,71.2993],[20.3392,71.3082],[20.352,71.3178],[20.3597,71.348],[20.3253,71.3652]]],[[[20.2003,71.3784],[20.2008,71.3797],[20.1991,71.3758],[20.2003,71.3784]]],[[[20.2003,71.3784],[20.1618,71.348],[20.15,71.3118],[20.0883,71.2774],[20.0967,71.2662],[20.1146,71.274],[20.1845,71.2791],[20.1853,71.2895],[20.2205,71.3066],[20.2455,71.3655],[20.2003,71.3784]]],[[[20.5437,71.4636],[20.3715,71.4229],[20.3967,71.4144],[20.4126,71.3988],[20.3898,71.3411],[20.3575,71.3016],[20.4471,71.2971],[20.4213,71.3022],[20.5069,71.3079],[20.5382,71.319],[20.5735,71.3526],[20.4551,71.3513],[20.5322,71.3663],[20.538,71.3698],[20.4928,71.3698],[20.5801,71.3899],[20.5805,71.4069],[20.5407,71.445],[20.5544,71.4657],[20.5437,71.4636]]],[[[20.5544,71.4657],[20.5545,71.4658],[20.5437,71.4636],[20.5544,71.4657]]],[[[20.5544,71.4657],[20.5549,71.4658],[20.5544,71.4657],[20.5544,71.4657]]],[[[21.124,71.4392],[21.2486,71.4405],[20.9687,71.4476],[20.8937,71.4606],[20.7417,71.4583],[20.7799,71.4423],[20.7949,71.4269],[20.8235,71.4211],[21.124,71.4392]]],[[[20.7669,71.5344],[20.7216,71.5381],[20.6918,71.5082],[20.8453,71.4973],[20.8691,71.4834],[21.1092,71.4593],[21.2919,71.4651],[21.301,71.467],[21.2295,71.4706],[21.3425,71.4821],[20.9443,71.4952],[20.9347,71.4969],[20.9853,71.5002],[20.9741,71.5108],[20.9917,71.5144],[20.9842,71.5214],[20.7669,71.5344]]],[[[20.8313,71.5741],[20.8284,71.5733],[20.8318,71.5741],[20.8313,71.5741]]],[[[20.8313,71.5741],[20.9032,71.5857],[21.4271,71.5865],[21.5241,71.6026],[21.3453,71.6053],[21.2755,71.6228],[21.2241,71.6259],[20.8451,71.6253],[20.7492,71.6147],[20.6777,71.5836],[20.8313,71.5741]]],[[[20.9877,71.6594],[20.9766,71.653],[20.9815,71.6468],[21.1372,71.6471],[21.0633,71.669],[20.9814,71.6733],[20.9864,71.6707],[20.9066,71.6613],[20.9877,71.6594]]],[[[21.7769,71.6675],[21.7766,71.6736],[21.8109,71.68],[21.7233,71.6667],[21.7107,71.6676],[21.7236,71.6759],[21.7137,71.6776],[21.5662,71.674],[21.544,71.6675],[21.8251,71.6647],[21.7769,71.6675]]],[[[22.9139,71.6481],[22.7972,71.6557],[22.7861,71.6477],[22.8006,71.6381],[22.7724,71.6355],[22.7781,71.626],[22.8083,71.6252],[22.7927,71.6177],[22.8041,71.6033],[22.8725,71.6031],[22.8399,71.5836],[22.8694,71.5739],[22.8913,71.5756],[22.9428,71.5873],[22.9668,71.6425],[22.9139,71.6481]]]]}},{"type":"Feature","properties":{"field":"Ormen Lange"},"geometry":{"type":"MultiPolygon","coordinates":[[[[5.3384,63.6908],[5.326,63.6865],[5.3445,63.6823],[5.3282,63.6832],[5.3289,63.6763],[5.3137,63.6823],[5.2743,63.6772],[5.2774,63.652],[5.2515,63.6412],[5.2717,63.6392],[5.2846,63.6239],[5.3091,63.6227],[5.3055,63.6188],[5.3169,63.6126],[5.3105,63.6055],[5.2706,63.6096],[5.2465,63.6012],[5.2526,63.595],[5.244,63.5929],[5.2543,63.5804],[5.2432,63.5499],[5.2638,63.5492],[5.25,63.5452],[5.2684,63.5387],[5.2586,63.5362],[5.2678,63.5286],[5.2606,63.5248],[5.2914,63.4917],[5.2973,63.4826],[5.2912,63.4774],[5.3023,63.4753],[5.2951,63.4681],[5.308,63.4587],[5.2958,63.4525],[5.3003,63.4491],[5.2881,63.4361],[5.2665,63.4349],[5.2734,63.4281],[5.2645,63.4216],[5.2463,63.4212],[5.2588,63.414],[5.2568,63.4071],[5.2316,63.3961],[5.2309,63.3776],[5.2207,63.377],[5.2223,63.3712],[5.2406,63.351],[5.2336,63.3421],[5.2717,63.3289],[5.2811,63.3165],[5.3117,63.3113],[5.3183,63.3028],[5.3667,63.3062],[5.38,63.3001],[5.3971,63.3112],[5.4087,63.307],[5.4337,63.3169],[5.4296,63.3134],[5.4361,63.3109],[5.4716,63.3179],[5.4489,63.3312],[5.4215,63.3303],[5.4341,63.335],[5.4241,63.3387],[5.4292,63.3428],[5.4214,63.3487],[5.4274,63.3518],[5.4061,63.3636],[5.4148,63.372],[5.3999,63.3826],[5.398,63.3936],[5.4081,63.4207],[5.3935,63.4406],[5.4039,63.4425],[5.399,63.4456],[5.4066,63.4511],[5.3932,63.4534],[5.4149,63.4642],[5.4126,63.4745],[5.4529,63.5015],[5.482,63.5364],[5.4745,63.5375],[5.4868,63.5444],[5.4684,63.5534],[5.4674,63.5615],[5.4771,63.5666],[5.4636,63.5751],[5.4684,63.5802],[5.462,63.5937],[5.453,63.5937],[5.46,63.5975],[5.4479,63.5974],[5.4563,63.6075],[5.4467,63.6081],[5.4493,63.6145],[5.422,63.6131],[5.403,63.6222],[5.4138,63.6221],[5.4277,63.6376],[5.3892,63.6326],[5.418,63.6428],[5.395,63.6471],[5.4061,63.6511],[5.3934,63.6523],[5.4026,63.6585],[5.3905,63.6673],[5.4009,63.6716],[5.3793,63.6713],[5.3648,63.68],[5.3809,63.6856],[5.3384,63.6908]]]]}},{"type":"Feature","properties":{"field":"Norne"},"geometry":{"type":"MultiPolygon","coordinates":[[[[8.046,66.0257],[8.0496,66.0309],[8.0356,66.0287],[8.0258,66.0183],[8.046,66.0257]]],[[[8.2591,66.0852],[8.2279,66.065],[8.1866,66.0626],[8.1896,66.0542],[8.1842,66.0614],[8.1637,66.0595],[8.1814,66.049],[8.2547,66.0625],[8.2705,66.0769],[8.2714,66.0837],[8.2591,66.0852]]],[[[8.2795,66.0827],[8.2949,66.0981],[8.2942,66.1134],[8.2697,66.0978],[8.2695,66.0886],[8.2795,66.0827]]]]}},{"type":"Feature","properties":{"field":"Alvheim"},"geometry":{"type":"MultiPolygon","coordinates":[[[[2.0543,59.4842],[2.0308,59.4831],[2.0417,59.4767],[2.0329,59.4683],[2.0588,59.4627],[2.0524,59.472],[2.0599,59.4759],[2.0847,59.4654],[2.0543,59.4842]]],[[[1.9845,59.5079],[1.9773,59.506],[2.0034,59.4997],[1.9845,59.5079]]],[[[2.0888,59.5343],[2.0725,59.5251],[2.064,59.5314],[2.0432,59.5272],[2.0591,59.5062],[2.0407,59.5042],[2.036,59.4928],[1.9909,59.496],[2.0104,59.4919],[2.021,59.476],[2.0431,59.4922],[2.0686,59.4871],[2.1055,59.4965],[2.1424,59.4951],[2.1565,59.5059],[2.1357,59.507],[2.1481,59.5212],[2.094,59.5242],[2.0888,59.5343]]],[[[2.0534,59.5543],[2.0213,59.5544],[1.9499,59.5323],[1.9616,59.5261],[2.0471,59.5315],[2.0651,59.5471],[2.0541,59.5471],[2.0534,59.5543]]],[[[2.1396,59.6038],[2.1597,59.6064],[2.1207,59.6174],[2.1028,59.6018],[2.0861,59.602],[2.085,59.5929],[2.0612,59.5933],[1.9915,59.5714],[1.9866,59.574],[1.9933,59.5802],[1.9675,59.5747],[1.955,59.5818],[1.9587,59.6029],[1.9199,59.6039],[1.9261,59.5981],[1.9176,59.5956],[1.9154,59.5843],[1.8721,59.5849],[1.8714,59.5672],[1.8562,59.5585],[1.8743,59.5512],[1.8943,59.5592],[1.8943,59.5655],[1.9101,59.5646],[1.9115,59.5716],[1.9172,59.5651],[1.8983,59.5527],[1.9305,59.5478],[1.9231,59.5462],[1.9279,59.5426],[1.9713,59.5449],[1.9971,59.5606],[2.0299,59.5676],[2.0152,59.5716],[2.0687,59.5731],[2.1396,59.6038]]]]}},{"type":"Feature","properties":{"field":"Alvheim"},"geometry":{"type":"MultiPolygon","coordinates":[[[[2.2688,59.6776],[2.2473,59.6708],[2.2544,59.67],[2.2503,59.6626],[2.2721,59.6429],[2.2922,59.6447],[2.2863,59.6568],[2.2943,59.6623],[2.293,59.6729],[2.2688,59.6776]]]]}},{"type":"Feature","properties":{"field":"Sleipner"},"geometry":{"type":"MultiPolygon","coordinates":[[[[1.9033,58.4451],[1.884,58.4476],[1.866,58.4359],[1.8992,58.431],[1.9117,58.4365],[1.9033,58.4451]]]]}},{"type":"Feature","properties":{"field":"Ula"},"geometry":{"type":"MultiPolygon","coordinates":[[[[2.4601,56.912],[2.4468,56.9054],[2.4293,56.9092],[2.4367,56.8846],[2.4208,56.8766],[2.4429,56.8651],[2.4703,56.8604],[2.4731,56.8656],[2.4849,56.8444],[2.5035,56.8468],[2.4929,56.8822],[2.516,56.895],[2.5124,56.9112],[2.4739,56.9041],[2.4601,56.912]]]]}},{"type":"Feature","properties":{"field":"Balder"},"geometry":{"type":"MultiPolygon","coordinates":[[[[2.4935,59.3279],[2.47,59.3067],[2.4586,59.3078],[2.4503,59.2851],[2.4365,59.275],[2.4504,59.2709],[2.4676,59.2798],[2.5085,59.2705],[2.533,59.2803],[2.5233,59.2866],[2.5259,59.2935],[2.507,59.2946],[2.5187,59.2971],[2.5237,59.3136],[2.4935,59.3279]]]]}},{"type":"Feature","properties":{"field":"Kristin"},"geometry":{"type":"MultiPolygon","coordinates":[[[[7.0678,64.8129],[7.0626,64.8262],[7.0008,64.8078],[6.9473,64.8225],[6.9378,64.8228],[6.9345,64.814],[6.9444,64.7785],[6.9716,64.7511],[7.0078,64.7651],[7.0162,64.7786],[7.0734,64.7935],[7.0678,64.8129]]],[[[7.0784,64.9],[7.0775,64.9315],[7.0207,64.9013],[7.0288,64.8919],[7.0211,64.8822],[6.9818,64.8652],[7.0203,64.8529],[7.0205,64.8467],[7.0575,64.8533],[7.0767,64.8831],[7.0784,64.9]]]]}},{"type":"Feature","properties":{"field":"Gullfaks"},"geometry":{"type":"MultiPolygon","coordinates":[[[[2.3219,61.2389],[2.316,61.2402],[2.3362,61.2451],[2.3176,61.2489],[2.3266,61.2518],[2.3194,61.2656],[2.2936,61.2409],[2.3359,61.2295],[2.3219,61.2389]]],[[[2.374,61.276],[2.3313,61.2575],[2.3516,61.2504],[2.374,61.276]]]]}},{"type":"Feature","properties":{"field":"Alvheim"},"geometry":{"type":"MultiPolygon","coordinates":[[[[1.8597,59.5049],[1.847,59.5034],[1.8814,59.496],[1.9068,59.5046],[1.9133,59.5007],[1.8934,59.4971],[1.9132,59.4987],[1.9391,59.4858],[1.9617,59.4911],[1.958,59.4833],[1.9067,59.4886],[1.9086,59.4833],[1.8982,59.4816],[1.9135,59.4758],[1.9002,59.4656],[1.9583,59.4715],[1.9554,59.4665],[1.9683,59.464],[1.9651,59.4684],[1.9766,59.4725],[2.0052,59.4487],[1.9976,59.4642],[1.9804,59.4754],[2.0095,59.4769],[1.9943,59.4802],[1.9888,59.4872],[2.0034,59.4917],[1.9811,59.4931],[1.9862,59.4988],[1.8597,59.5049]]]]}},{"type":"Feature","properties":{"field":"Norne"},"geometry":{"type":"MultiPolygon","coordinates":[[[[7.8995,65.9963],[7.8359,65.9774],[7.8189,65.9943],[7.7724,65.946],[7.7909,65.9387],[7.8693,65.9738],[7.8995,65.9963]]],[[[7.9921,65.9874],[8.0007,65.9988],[7.9843,65.9937],[7.9921,65.9874]]]]}},{"type":"Feature","properties":{"field":"Gjøa"},"geometry":{"type":"MultiPolygon","coordinates":[[[[3.9949,61.4069],[3.9927,61.4127],[3.9432,61.4027],[3.9548,61.3684],[3.9144,61.3566],[3.913,61.3451],[3.8936,61.3258],[3.8967,61.3095],[3.9287,61.3041],[3.9513,61.3095],[3.9574,61.3197],[3.9757,61.3088],[3.9759,61.325],[3.9594,61.3273],[3.9559,61.3348],[3.9624,61.3477],[3.9584,61.3625],[3.9727,61.3764],[3.9905,61.3697],[3.9842,61.352],[4.0039,61.342],[4.0443,61.3472],[4.0466,61.3566],[4.0242,61.3593],[4.0389,61.3628],[4.0375,61.3718],[4.0057,61.3733],[4.0062,61.3909],[3.9935,61.3995],[3.9949,61.4069]]],[[[3.9755,61.5074],[3.9653,61.5022],[3.965,61.4804],[3.9478,61.4757],[3.9492,61.4505],[3.9957,61.4359],[3.9968,61.4441],[3.9729,61.4705],[3.9805,61.4785],[3.9757,61.4858],[3.9815,61.507],[3.9755,61.5074]]]]}},{"type":"Feature","properties":{"field":"Gjøa"},"geometry":{"type":"MultiPolygon","coordinates":[[[[3.485,61.1777],[3.4408,61.1782],[3.4141,61.1626],[3.4209,61.1306],[3.4461,61.151],[3.4787,61.1616],[3.485,61.1777]]],[[[3.3597,61.2417],[3.3959,61.27],[3.3825,61.2848],[3.3811,61.3053],[3.3665,61.313],[3.3471,61.2853],[3.3528,61.2335],[3.3597,61.2417]]],[[[3.3757,61.3735],[3.3747,61.3815],[3.3321,61.3628],[3.3576,61.3391],[3.3748,61.3593],[3.3757,61.3735]]]]}},{"type":"Feature","properties":{"field":"Skarv"},"geometry":{"type":"MultiPolygon","coordinates":[[[[7.7435,65.8134],[7.6986,65.7939],[7.684,65.7708],[7.7008,65.7798],[7.7155,65.777],[7.7359,65.7903],[7.7462,65.8019],[7.7435,65.8134]]],[[[7.6902,65.8486],[7.7198,65.8714],[7.7275,65.8927],[7.6921,65.8989],[7.6952,65.8919],[7.6572,65.8784],[7.6606,65.8669],[7.6525,65.8626],[7.658,65.848],[7.6502,65.8484],[7.6393,65.8281],[7.6243,65.8298],[7.6308,65.8199],[7.612,65.8116],[7.6214,65.8059],[7.6074,65.794],[7.6155,65.7885],[7.6016,65.7834],[7.6004,65.7732],[7.5714,65.7734],[7.5819,65.7703],[7.5554,65.7533],[7.5666,65.7405],[7.5471,65.7346],[7.5508,65.7267],[7.5384,65.7119],[7.4907,65.6866],[7.4964,65.679],[7.4874,65.6703],[7.4987,65.6649],[7.464,65.6517],[7.4586,65.637],[7.446,65.6348],[7.4507,65.6227],[7.4341,65.622],[7.3996,65.6044],[7.4026,65.5992],[7.3899,65.598],[7.3843,65.5885],[7.3947,65.5854],[7.3863,65.5791],[7.3892,65.5597],[7.3478,65.522],[7.3419,65.5025],[7.3921,65.5402],[7.4267,65.5852],[7.5093,65.6285],[7.5261,65.6649],[7.5202,65.6698],[7.5463,65.6834],[7.5754,65.6859],[7.6244,65.7106],[7.6599,65.7172],[7.6697,65.7345],[7.6959,65.7503],[7.6934,65.7632],[7.675,65.7568],[7.6829,65.7655],[7.5829,65.7121],[7.667,65.799],[7.6628,65.8241],[7.6902,65.8486]]]]}},{"type":"Feature","properties":{"field":"Åsgard"},"geometry":{"type":"MultiPolygon","coordinates":[[[[6.5043,65.1991],[6.4267,65.1827],[6.4053,65.1284],[6.4101,65.0992],[6.4375,65.0958],[6.4478,65.1023],[6.5235,65.1775],[6.5263,65.196],[6.5043,65.1991]]]]}},{"type":"Feature","properties":{"field":"Åsgard"},"geometry":{"type":"MultiPolygon","coordinates":[[[[7.5378,65.1083],[7.5033,65.1206],[7.4898,65.1026],[7.5378,65.1083]]]]}},{"type":"Feature","properties":{"field":"Ula"},"geometry":{"type":"MultiPolygon","coordinates":[[[[3.025,56.9645],[2.9606,56.9951],[3.0012,56.9631],[3.0266,56.9541],[3.036,56.9598],[3.0321,56.9672],[3.025,56.9645]]]]}},{"type":"Feature","properties":{"field":"Ula"},"geometry":{"type":"MultiPolygon","coordinates":[[[[2.6629,56.9713],[2.6451,56.9666],[2.665,56.9297],[2.7365,56.9006],[2.8009,56.9111],[2.7784,56.9359],[2.7513,56.925],[2.7125,56.9353],[2.7144,56.9411],[2.6816,56.9557],[2.6925,56.9606],[2.6629,56.9713]]]]}},{"type":"Feature","properties":{"field":"Goliat"},"geometry":{"type":"MultiPolygon","coordinates":[[[[22.3584,71.3147],[22.3233,71.309],[22.2924,71.29],[22.2932,71.2996],[22.3201,71.3183],[22.3054,71.3202],[22.2723,71.2932],[22.2546,71.2961],[22.2702,71.3094],[22.2283,71.3013],[22.2753,71.2842],[22.2562,71.2823],[22.2877,71.2686],[22.2118,71.2575],[22.2276,71.2534],[22.1674,71.2504],[22.1701,71.2434],[22.1849,71.2416],[22.2475,71.2482],[22.2703,71.2425],[22.3609,71.2528],[22.3524,71.2617],[22.356,71.2672],[22.3297,71.2781],[22.3229,71.2915],[22.3656,71.3098],[22.3584,71.3147]],[[22.2728,71.2907],[22.2727,71.2911],[22.2728,71.2912],[22.2728,71.2912],[22.273,71.2906],[22.2728,71.2907]],[[22.2725,71.2916],[22.2724,71.2917],[22.2719,71.2922],[22.2721,71.2923],[22.2725,71.2916]]]]}},{"type":"Feature","properties":{"field":"Sleipner"},"geometry":{"type":"MultiPolygon","coordinates":[[[[1.733,58.8158],[1.733,58.8158],[1.733,58.8158],[1.733,58.8158]]],[[[1.8019,58.8268],[1.7667,58.8254],[1.7606,58.8109],[1.7866,58.8045],[1.7861,58.8134],[1.8019,58.8268]]],[[[1.733,58.8158],[1.7458,58.8197],[1.7513,58.8335],[1.7841,58.8336],[1.7719,58.845],[1.7775,58.8626],[1.8065,58.8746],[1.798,58.893],[1.7427,58.8652],[1.7338,58.8531],[1.724,58.8594],[1.7138,58.8368],[1.6959,58.831],[1.6854,58.8146],[1.7051,58.8221],[1.7152,58.8107],[1.7183,58.8175],[1.733,58.8158]]]]}},{"type":"Feature","properties":{"field":"Norne"},"geometry":{"type":"MultiPolygon","coordinates":[[[[7.6404,65.997],[7.6114,65.9927],[7.6273,65.9841],[7.6139,65.9713],[7.5591,65.9649],[7.5393,65.9457],[7.4722,65.9099],[7.5007,65.8999],[7.5856,65.913],[7.5921,65.9238],[7.6135,65.9282],[7.6032,65.9374],[7.6136,65.9585],[7.644,65.9621],[7.6631,65.977],[7.6622,65.9869],[7.6404,65.997]]]]}},{"type":"Feature","properties":{"field":"Kvitebjørn"},"geometry":{"type":"MultiPolygon","coordinates":[[[[2.2591,61.0563],[2.2227,61.0519],[2.2363,61.0366],[2.2158,61.0194],[2.2022,60.9937],[2.2188,60.9979],[2.2445,60.9902],[2.2647,60.9992],[2.2732,61.0112],[2.2728,61.033],[2.2591,61.0563]]],[[[2.3216,61.0786],[2.3154,61.0894],[2.3145,61.0744],[2.2853,61.0606],[2.2966,61.0324],[2.308,61.0419],[2.3151,61.0352],[2.2937,61.0246],[2.2974,61.0092],[2.276,60.9984],[2.2767,60.9887],[2.2907,60.9959],[2.3071,60.9869],[2.324,60.998],[2.3136,61.004],[2.3199,61.0127],[2.3329,61.0099],[2.3292,61.0037],[2.347,61.0067],[2.3537,60.9999],[2.3535,61.0196],[2.3717,61.0211],[2.3695,61.012],[2.3968,61.0071],[2.4132,61.0114],[2.4237,61.0273],[2.4355,61.0246],[2.4317,61.0443],[2.4214,61.0508],[2.4319,61.0582],[2.418,61.0564],[2.4192,61.0465],[2.4063,61.0526],[2.4195,61.0625],[2.3968,61.085],[2.4022,61.0734],[2.3942,61.0692],[2.3757,61.0888],[2.3327,61.0892],[2.3216,61.0786]]]]}},{"type":"Feature","properties":{"field":"Gullfaks"},"geometry":{"type":"MultiPolygon","coordinates":[[[[2.3402,61.2751],[2.3751,61.3031],[2.3273,61.3119],[2.3269,61.2768],[2.3402,61.2751]]]]}},{"type":"Feature","properties":{"field":"Njord"},"geometry":{"type":"MultiPolygon","coordinates":[[[[7.5275,64.3356],[7.5544,64.3452],[7.5591,64.3599],[7.5033,64.3354],[7.5275,64.3356]]]]}},{"type":"Feature","properties":{"field":"Norne"},"geometry":{"type":"MultiPolygon","coordinates":[[[[8.2607,66.1586],[8.2112,66.1445],[8.2638,66.1438],[8.2607,66.1586]]],[[[8.3188,66.2255],[8.3374,66.2299],[8.3354,66.2364],[8.3095,66.2466],[8.2912,66.2335],[8.2945,66.2263],[8.3188,66.2255]]]]}},{"type":"Feature","properties":{"field":"Edvard Grieg"},"geometry":{"type":"MultiPolygon","coordinates":[[[[2.3316,58.8471],[2.3156,58.862],[2.2975,58.8593],[2.299,58.8508],[2.311,58.8463],[2.3316,58.8471]]],[[[2.2914,58.8846],[2.2581,58.8876],[2.1979,58.8658],[2.1754,58.82],[2.2992,58.8169],[2.2973,58.858],[2.2842,58.8709],[2.3039,58.8653],[2.3122,58.8723],[2.2914,58.8846]],[[2.2807,58.8737],[2.2806,58.874],[2.281,58.8735],[2.2807,58.8737]],[[2.2805,58.8751],[2.2816,58.8768],[2.2817,58.8768],[2.2815,58.8764],[2.281,58.8757],[2.2806,58.8748],[2.2805,58.8751]],[[2.2827,58.8784],[2.2829,58.8787],[2.2832,58.879],[2.2838,58.8793],[2.2843,58.8796],[2.285,58.8798],[2.2854,58.88],[2.2832,58.8788],[2.2826,58.8782],[2.2827,58.8784]]]]}},{"type":"Feature","properties":{"field":"Martin Linge"},"geometry":{"type":"MultiPolygon","coordinates":[[[[2.0293,60.5319],[2.0287,60.5392],[2.0165,60.5341],[2.0057,60.5195],[2.0172,60.5116],[2.0074,60.516],[1.9833,60.4961],[2.0003,60.4896],[2.0099,60.4955],[2.0026,60.4846],[2.0075,60.479],[2.036,60.4738],[2.0716,60.4935],[2.0756,60.5071],[2.0666,60.526],[2.0506,60.524],[2.0443,60.5317],[2.0354,60.5192],[2.0415,60.5341],[2.0293,60.5319]],[[2.0305,60.5138],[2.0305,60.5138],[2.0325,60.5152],[2.0332,60.5157],[2.0331,60.5156],[2.0325,60.5146],[2.0306,60.5138],[2.0305,60.5138],[2.0305,60.5138]]],[[[1.9933,60.5382],[1.996,60.5491],[1.9801,60.543],[1.9635,60.4986],[1.9756,60.5031],[1.9933,60.5382]]]]}},{"type":"Feature","properties":{"field":"Alvheim"},"geometry":{"type":"MultiPolygon","coordinates":[[[[1.8459,59.3636],[1.8178,59.3746],[1.8214,59.3609],[1.7774,59.3496],[1.8031,59.3377],[1.8067,59.3276],[1.7991,59.3229],[1.8165,59.3171],[1.8209,59.3007],[1.8395,59.299],[1.8405,59.3065],[1.8563,59.3093],[1.8889,59.2918],[1.8894,59.3104],[1.8369,59.3371],[1.8548,59.3492],[1.8459,59.3636]]]]}},{"type":"Feature","properties":{"field":"Grane"},"geometry":{"type":"MultiPolygon","coordinates":[[[[2.4029,59.1357],[2.3773,59.1238],[2.3771,59.1085],[2.387,59.1097],[2.4029,59.1357]]],[[[2.3973,59.1625],[2.3884,59.1648],[2.3945,59.1577],[2.3805,59.1491],[2.395,59.1356],[2.4224,59.1601],[2.3973,59.1625]]]]}},{"type":"Feature","properties":{"field":"Edvard Grieg"},"geometry":{"type":"MultiPolygon","coordinates":[[[[2.1339,58.9317],[2.1118,58.9315],[2.1053,58.9229],[2.1285,58.9166],[2.1358,58.9204],[2.1339,58.9317]]],[[[2.1969,58.9355],[2.1723,58.9476],[2.1406,58.8938],[2.1573,58.8993],[2.1975,58.8923],[2.2117,58.9028],[2.2807,58.9129],[2.2315,58.9484],[2.1969,58.9355]]]]}},{"type":"Feature","properties":{"field":"Sleipner"},"geometry":{"type":"MultiPolygon","coordinates":[[[[1.7796,58.6114],[1.7129,58.584],[1.7058,58.5842],[1.7112,58.5951],[1.6602,58.5926],[1.6108,58.5766],[1.6262,58.5693],[1.6176,58.5639],[1.6241,58.5581],[1.6997,58.539],[1.7072,58.5497],[1.6856,58.5764],[1.6964,58.5708],[1.7241,58.5766],[1.7944,58.6102],[1.7796,58.6114]]]]}},{"type":"Feature","properties":{"field":"Aasta Hansteen"},"geometry":{"type":"MultiPolygon","coordinates":[[[[7.0872,67.057],[7.0554,67.0495],[6.9844,67.0073],[7.0647,67.0293],[7.0864,67.0459],[7.0872,67.057]]],[[[6.8823,67.0598],[6.8696,67.0617],[6.8869,67.0562],[6.8651,67.0607],[6.8356,67.0533],[6.878,67.041],[6.8892,67.0504],[6.8742,67.0565],[6.8972,67.0535],[6.8823,67.0598]]],[[[6.8916,67.0626],[6.8727,67.064],[6.9034,67.057],[6.8916,67.0626]]],[[[6.8523,67.0899],[6.8161,67.0819],[6.8656,67.0734],[6.8709,67.0748],[6.8595,67.076],[6.8765,67.0834],[6.8523,67.0899]]],[[[7.0462,67.0988],[7.0055,67.091],[6.9567,67.0617],[7.0003,67.049],[7.0399,67.064],[7.0612,67.0863],[7.0462,67.0988]]]]}},{"type":"Feature","properties":{"field":"Troll"},"geometry":{"type":"MultiPolygon","coordinates":[[[[3.5542,61.1229],[3.4793,61.1115],[3.5136,61.1056],[3.5542,61.1229]]]]}},{"type":"Feature","properties":{"field":"Edvard Grieg"},"geometry":{"type":"MultiPolygon","coordinates":[[[[2.2427,59.0324],[2.2489,59.0391],[2.2433,59.0614],[2.2221,59.0559],[2.2223,59.0472],[2.2084,59.0378],[2.2126,59.0321],[2.1927,59.0326],[2.1833,59.0018],[2.2075,59.0026],[2.2171,59.0194],[2.2427,59.0324]]]]}},{"type":"Feature","properties":{"field":"Johan Sverdrup"},"geometry":{"type":"MultiPolygon","coordinates":[[[[2.438,58.917],[2.4293,58.9234],[2.4185,58.9189],[2.4224,58.8926],[2.4524,58.8847],[2.4974,58.8535],[2.5111,58.8077],[2.5466,58.7615],[2.5503,58.7333],[2.5646,58.7094],[2.5874,58.6793],[2.625,58.6582],[2.5929,58.685],[2.6509,58.6896],[2.6562,58.6997],[2.6281,58.7214],[2.6378,58.7225],[2.5947,58.7336],[2.6181,58.7403],[2.6078,58.7489],[2.6238,58.7601],[2.6375,58.7542],[2.6575,58.76],[2.6357,58.7699],[2.6367,58.7784],[2.6215,58.7787],[2.6222,58.7978],[2.6377,58.7955],[2.6434,58.7891],[2.6319,58.7887],[2.649,58.7717],[2.6709,58.7655],[2.6637,58.7503],[2.6736,58.7501],[2.6784,58.761],[2.7058,58.7468],[2.7023,58.7374],[2.7177,58.7492],[2.7131,58.7557],[2.74,58.7533],[2.7574,58.7615],[2.7526,58.768],[2.7729,58.7581],[2.7896,58.7623],[2.7728,58.7904],[2.691,58.8269],[2.7073,58.8258],[2.6949,58.8312],[2.7007,58.8345],[2.6955,58.8421],[2.613,58.853],[2.6055,58.8417],[2.5907,58.8546],[2.5108,58.8832],[2.4738,58.9212],[2.438,58.917]]]]}},{"type":"Feature","properties":{"field":"Kristin"},"geometry":{"type":"MultiPolygon","coordinates":[[[[7.0283,65.0114],[6.9344,64.9712],[6.926,64.9546],[6.8999,64.9335],[6.9019,64.921],[6.9625,64.9339],[6.9686,64.9475],[7.0095,64.9731],[7.0283,65.0114]]]]}},{"type":"Feature","properties":{"field":"Troll"},"geometry":{"type":"MultiPolygon","coordinates":[[[[3.5336,61.1846],[3.5196,61.1936],[3.5338,61.1807],[3.5135,61.1858],[3.5087,61.1835],[3.5216,61.1773],[3.4981,61.1788],[3.5088,61.1738],[3.5097,61.1628],[3.5365,61.1556],[3.5273,61.1492],[3.5235,61.1573],[3.5157,61.1554],[3.5265,61.1331],[3.5354,61.135],[3.5297,61.1434],[3.5585,61.1513],[3.573,61.1643],[3.5336,61.1846]]]]}},{"type":"Feature","properties":{"field":"Sleipner"},"geometry":{"type":"MultiPolygon","coordinates":[[[[1.5444,58.396],[1.5361,58.404],[1.5225,58.3918],[1.5405,58.3757],[1.5195,58.3791],[1.5151,58.3723],[1.5355,58.3458],[1.5535,58.3474],[1.5511,58.3532],[1.5628,58.3593],[1.5911,58.3454],[1.6062,58.352],[1.576,58.3573],[1.5774,58.3657],[1.5613,58.3866],[1.5444,58.396]]]]}},{"type":"Feature","properties":{"field":"Heidrun"},"geometry":{"type":"MultiPolygon","coordinates":[[[[7.0867,65.4008],[7.1427,65.4573],[7.0959,65.4341],[7.0782,65.4115],[7.0867,65.4008]]],[[[7.2275,65.4771],[7.2223,65.4869],[7.194,65.4651],[7.1988,65.4606],[7.1228,65.3934],[7.1888,65.4164],[7.2172,65.4687],[7.2354,65.4726],[7.2275,65.4771]]],[[[7.1994,65.5549],[7.1808,65.5533],[7.1633,65.5225],[7.171,65.513],[7.1929,65.5199],[7.1919,65.5055],[7.174,65.4873],[7.1922,65.4714],[7.208,65.4778],[7.2234,65.518],[7.2156,65.5429],[7.1994,65.5549]]]]}},{"type":"Feature","properties":{"field":"Åsgard"},"geometry":{"type":"MultiPolygon","coordinates":[[[[6.8299,64.8878],[6.792,64.8756],[6.7794,64.8613],[6.7817,64.8538],[6.7373,64.8198],[6.7634,64.8172],[6.7938,64.8298],[6.7932,64.8168],[6.8001,64.8151],[6.8086,64.8358],[6.829,64.8495],[6.8446,64.8503],[6.8738,64.8756],[6.8632,64.8806],[6.872,64.8887],[6.8299,64.8878]]]]}},{"type":"Feature","properties":{"field":"Gullfaks"},"geometry":{"type":"MultiPolygon","coordinates":[[[[2.3654,61.2479],[2.3773,61.2617],[2.3797,61.2795],[2.3565,61.2527],[2.3437,61.2463],[2.347,61.2502],[2.3282,61.2501],[2.3245,61.2366],[2.3497,61.2305],[2.3654,61.2479]],[[2.3507,61.2383],[2.3512,61.2383],[2.3523,61.2382],[2.3507,61.2383]],[[2.3464,61.2384],[2.3472,61.2384],[2.3478,61.2384],[2.3475,61.2383],[2.3464,61.2384]],[[2.3455,61.2384],[2.3455,61.2387],[2.3456,61.2384],[2.3455,61.2384]],[[2.3427,61.2412],[2.3423,61.2424],[2.341,61.2434],[2.341,61.2443],[2.3421,61.2454],[2.3435,61.246],[2.3434,61.246],[2.3427,61.2456],[2.342,61.2452],[2.3418,61.2449],[2.3411,61.2444],[2.3413,61.2432],[2.3425,61.2424],[2.3425,61.2419],[2.3428,61.2417],[2.3429,61.2411],[2.3443,61.2403],[2.3444,61.2402],[2.3427,61.2412]]]]}},{"type":"Feature","properties":{"field":"Ula"},"geometry":{"type":"MultiPolygon","coordinates":[[[[3.0649,57.0774],[3.0433,57.0671],[3.0414,57.0587],[3.0718,57.0677],[3.0745,57.0775],[3.0649,57.0774]]]]}},{"type":"Feature","properties":{"field":"Njord"},"geometry":{"type":"MultiPolygon","coordinates":[[[[7.4727,64.3592],[7.4707,64.3641],[7.4417,64.3559],[7.4203,64.3391],[7.4451,64.3331],[7.4976,64.3557],[7.4727,64.3592]]]]}},{"type":"Feature","properties":{"field":"Alvheim"},"geometry":{"type":"MultiPolygon","coordinates":[[[[2.2258,59.7936],[2.1884,59.792],[2.2085,59.7903],[2.2205,59.7783],[2.2373,59.7801],[2.2244,59.7875],[2.2258,59.7936]]]]}},{"type":"Feature","properties":{"field":"Njord"},"geometry":{"type":"MultiPolygon","coordinates":[[[[6.7646,64.0477],[6.7468,64.0396],[6.7444,64.0309],[6.7083,64.0222],[6.7526,64.0197],[6.8009,64.0383],[6.7646,64.0477]]]]}},{"type":"Feature","properties":{"field":"Johan Castberg"},"geometry":{"type":"MultiPolygon","coordinates":[[[[20.1293,72.3964],[20.1566,72.4036],[20.1328,72.409],[20.1049,72.4008],[20.1293,72.3964]]],[[[20.1399,72.4251],[20.1196,72.4201],[20.1138,72.4114],[20.175,72.4201],[20.1527,72.4166],[20.1399,72.4251]]],[[[20.1432,72.4259],[20.1431,72.4259],[20.1428,72.4259],[20.1425,72.4259],[20.1424,72.4259],[20.1422,72.4259],[20.1421,72.4259],[20.142,72.4259],[20.1417,72.4259],[20.1415,72.4258],[20.1412,72.4258],[20.1411,72.4257],[20.1409,72.4257],[20.141,72.4256],[20.1408,72.4255],[20.1408,72.4255],[20.1408,72.4255],[20.1407,72.4255],[20.1406,72.4254],[20.1406,72.4254],[20.1405,72.4253],[20.1405,72.4253],[20.1405,72.4252],[20.1404,72.4252],[20.1404,72.4251],[20.1404,72.4251],[20.1404,72.425],[20.1403,72.425],[20.1403,72.4249],[20.1403,72.4249],[20.1403,72.4248],[20.1403,72.4247],[20.1403,72.4247],[20.1404,72.4247],[20.1405,72.4247],[20.1408,72.4248],[20.1411,72.4248],[20.1412,72.4248],[20.1413,72.4248],[20.1415,72.4248],[20.1417,72.4248],[20.1419,72.4248],[20.1422,72.4248],[20.1423,72.4248],[20.1426,72.4248],[20.1427,72.4248],[20.1428,72.4248],[20.143,72.4248],[20.1433,72.4247],[20.1434,72.4247],[20.1434,72.4247],[20.1437,72.4246],[20.1438,72.4246],[20.1438,72.4246],[20.144,72.4245],[20.1441,72.4245],[20.1442,72.4244],[20.1443,72.4243],[20.1443,72.4243],[20.1445,72.4242],[20.1446,72.4242],[20.1447,72.4242],[20.145,72.4242],[20.145,72.4242],[20.1451,72.4242],[20.1454,72.4242],[20.1455,72.4242],[20.1458,72.4242],[20.1459,72.4243],[20.1461,72.4243],[20.1464,72.4243],[20.1465,72.4243],[20.1466,72.4244],[20.1468,72.4244],[20.147,72.4245],[20.1471,72.4245],[20.1472,72.4246],[20.1472,72.4246],[20.1473,72.4247],[20.1473,72.4247],[20.1472,72.4248],[20.1472,72.4249],[20.1471,72.4249],[20.1471,72.425],[20.1471,72.425],[20.1471,72.4251],[20.147,72.4251],[20.147,72.4252],[20.1469,72.4252],[20.1467,72.4253],[20.1466,72.4253],[20.1466,72.4253],[20.1466,72.4253],[20.1462,72.4252],[20.1462,72.4252],[20.1461,72.4252],[20.146,72.4251],[20.1458,72.4251],[20.1458,72.4251],[20.1456,72.425],[20.1454,72.425],[20.1452,72.425],[20.145,72.425],[20.1447,72.4249],[20.1446,72.4249],[20.1444,72.425],[20.1442,72.425],[20.1441,72.425],[20.144,72.425],[20.1439,72.4251],[20.1439,72.4251],[20.1437,72.4252],[20.1436,72.4252],[20.1435,72.4253],[20.1435,72.4253],[20.1434,72.4254],[20.1434,72.4255],[20.1434,72.4255],[20.1434,72.4256],[20.1434,72.4256],[20.1434,72.4257],[20.1434,72.4257],[20.1434,72.4258],[20.1433,72.4259],[20.1432,72.4259]]],[[[20.285,72.4245],[20.3241,72.4529],[20.2699,72.4473],[20.2499,72.4133],[20.285,72.4245]]],[[[20.3405,72.4594],[20.3408,72.4594],[20.3408,72.4594],[20.3411,72.4594],[20.3412,72.4594],[20.3415,72.4594],[20.3416,72.4594],[20.3419,72.4594],[20.342,72.4594],[20.3421,72.4594],[20.3423,72.4595],[20.3425,72.4596],[20.3427,72.4596],[20.3428,72.4597],[20.3428,72.4597],[20.3429,72.4598],[20.3431,72.4599],[20.3431,72.4599],[20.3431,72.4599],[20.3431,72.4599],[20.343,72.46],[20.343,72.46],[20.3429,72.4601],[20.3428,72.4601],[20.3427,72.4602],[20.3425,72.4602],[20.3426,72.4603],[20.3427,72.4603],[20.3428,72.4603],[20.3428,72.4603],[20.343,72.4604],[20.343,72.4604],[20.3432,72.4604],[20.3434,72.4604],[20.3434,72.4604],[20.3434,72.4605],[20.3438,72.4605],[20.3439,72.4606],[20.3441,72.4606],[20.3444,72.4607],[20.3445,72.4607],[20.3447,72.4608],[20.3448,72.4608],[20.3449,72.4608],[20.345,72.4608],[20.3453,72.4609],[20.3454,72.4609],[20.3456,72.4609],[20.3456,72.4609],[20.3456,72.4609],[20.346,72.461],[20.3461,72.461],[20.3463,72.461],[20.3463,72.461],[20.3464,72.461],[20.3465,72.4611],[20.3466,72.4611],[20.3466,72.4612],[20.3467,72.4612],[20.3466,72.4613],[20.3465,72.4614],[20.3463,72.4614],[20.3463,72.4615],[20.3463,72.4615],[20.3462,72.4615],[20.3461,72.4616],[20.3461,72.4616],[20.346,72.4617],[20.346,72.4617],[20.346,72.4617],[20.3459,72.4617],[20.3456,72.4617],[20.3456,72.4617],[20.3452,72.4616],[20.345,72.4616],[20.3449,72.4616],[20.3447,72.4616],[20.3445,72.4616],[20.3443,72.4615],[20.3441,72.4615],[20.344,72.4615],[20.3437,72.4614],[20.3435,72.4614],[20.3434,72.4613],[20.3432,72.4612],[20.343,72.4612],[20.3429,72.4612],[20.3426,72.4611],[20.3426,72.4611],[20.3424,72.4611],[20.3423,72.4611],[20.3422,72.4611],[20.3419,72.4611],[20.3417,72.4611],[20.3415,72.461],[20.3412,72.461],[20.3412,72.461],[20.341,72.461],[20.3408,72.4609],[20.3407,72.4609],[20.3404,72.4608],[20.3401,72.4608],[20.3401,72.4608],[20.3399,72.4607],[20.3398,72.4606],[20.3397,72.4606],[20.3397,72.4605],[20.3396,72.4604],[20.3393,72.4603],[20.3393,72.4603],[20.3393,72.4603],[20.3393,72.4602],[20.3393,72.4602],[20.3393,72.4602],[20.3393,72.4602],[20.3393,72.4601],[20.3393,72.4601],[20.3393,72.46],[20.3391,72.4599],[20.3391,72.4599],[20.3391,72.4598],[20.3391,72.4598],[20.3391,72.4597],[20.3391,72.4597],[20.3391,72.4596],[20.3392,72.4595],[20.3391,72.4595],[20.3394,72.4595],[20.3394,72.4595],[20.3397,72.4595],[20.34,72.4595],[20.3401,72.4595],[20.3405,72.4594],[20.3405,72.4594],[20.3405,72.4594],[20.3405,72.4594]]],[[[20.3474,72.462],[20.3476,72.462],[20.3478,72.462],[20.348,72.462],[20.3481,72.4621],[20.3482,72.4621],[20.3483,72.4622],[20.3483,72.4622],[20.3482,72.4623],[20.3482,72.4623],[20.3482,72.4623],[20.3479,72.4623],[20.3478,72.4623],[20.3476,72.4623],[20.3474,72.4623],[20.3472,72.4623],[20.3471,72.4622],[20.347,72.4621],[20.3469,72.4621],[20.3469,72.462],[20.3468,72.462],[20.3471,72.462],[20.3472,72.462],[20.3474,72.462]]],[[[20.3846,72.4651],[20.3567,72.4641],[20.3481,72.4517],[20.3243,72.4484],[20.299,72.428],[20.3409,72.4473],[20.3654,72.441],[20.3902,72.4524],[20.3674,72.4552],[20.3846,72.4651]]],[[[20.1933,72.4802],[20.1991,72.4861],[20.1361,72.4772],[20.1153,72.4661],[20.1081,72.4406],[20.1227,72.4314],[20.1565,72.4342],[20.1494,72.4439],[20.1639,72.448],[20.1933,72.4802]]],[[[20.3748,72.5665],[20.3559,72.5643],[20.3291,72.5386],[20.3368,72.5366],[20.2932,72.5107],[20.2939,72.475],[20.3418,72.4727],[20.3392,72.4869],[20.3579,72.4907],[20.3609,72.505],[20.3372,72.5041],[20.3558,72.5214],[20.3464,72.5238],[20.3756,72.5418],[20.3702,72.5459],[20.3806,72.5601],[20.3748,72.5665]]]]}},{"type":"Feature","properties":{"field":"Gjøa"},"geometry":{"type":"MultiPolygon","coordinates":[[[[3.6556,61.3031],[3.6388,61.3287],[3.6379,61.3201],[3.618,61.3147],[3.621,61.3034],[3.6383,61.2993],[3.6313,61.2915],[3.6364,61.2845],[3.6291,61.282],[3.6438,61.2693],[3.639,61.2514],[3.6695,61.2419],[3.7333,61.2416],[3.7273,61.2567],[3.7127,61.2653],[3.7218,61.2725],[3.715,61.2792],[3.6794,61.285],[3.6825,61.2906],[3.6556,61.3031]]]]}},{"type":"Feature","properties":{"field":"Edvard Grieg"},"geometry":{"type":"MultiPolygon","coordinates":[[[[2.1939,58.7183],[2.1747,58.7469],[2.1578,58.7528],[2.1489,58.7089],[2.1639,58.6947],[2.2957,58.6421],[2.3262,58.6595],[2.2711,58.6844],[2.261,58.6797],[2.2362,58.7124],[2.2,58.6882],[2.1808,58.7155],[2.1939,58.7183]]]]}},{"type":"Feature","properties":{"field":"Gjøa"},"geometry":{"type":"MultiPolygon","coordinates":[[[[4.0643,61.4369],[4.0459,61.4251],[4.0566,61.4148],[4.0605,61.3793],[4.0909,61.3936],[4.1185,61.3881],[4.1157,61.3992],[4.0869,61.4147],[4.115,61.4242],[4.0763,61.4274],[4.0803,61.4335],[4.0643,61.4369]]]]}},{"type":"Feature","properties":{"field":"Skarv"},"geometry":{"type":"MultiPolygon","coordinates":[[[[7.7215,65.9605],[7.6692,65.9485],[7.667,65.9322],[7.699,65.9293],[7.6898,65.9122],[7.7066,65.9086],[7.7376,65.9246],[7.7574,65.9463],[7.7252,65.9408],[7.7404,65.9548],[7.7215,65.9605]]]]}},{"type":"Feature","properties":{"field":"Grane"},"geometry":{"type":"MultiPolygon","coordinates":[[[[2.5612,59.2617],[2.5351,59.2574],[2.5389,59.2411],[2.5008,59.2278],[2.4995,59.2167],[2.5414,59.2137],[2.5706,59.2248],[2.572,59.2152],[2.587,59.2154],[2.5981,59.228],[2.5639,59.2382],[2.552,59.2348],[2.5612,59.2617]]],[[[2.5924,59.2705],[2.5806,59.2812],[2.5536,59.268],[2.5658,59.2577],[2.5575,59.2416],[2.5702,59.2387],[2.5844,59.2475],[2.5912,59.2388],[2.6162,59.2395],[2.6234,59.2437],[2.6193,59.2519],[2.6445,59.2449],[2.653,59.2513],[2.6416,59.2612],[2.6449,59.2666],[2.6239,59.2755],[2.6055,59.2793],[2.6079,59.2681],[2.5924,59.2705]]]]}},{"type":"Feature","properties":{"field":"Ekofisk"},"geometry":{"type":"MultiPolygon","coordinates":[[[[2.9172,56.4099],[2.8955,56.4189],[2.871,56.4064],[2.9073,56.3934],[2.9192,56.3987],[2.9172,56.4099]]]]}},{"type":"Feature","properties":{"field":"Alvheim"},"geometry":{"type":"MultiPolygon","coordinates":[[[[2.3119,59.5968],[2.2956,59.5924],[2.3157,59.5856],[2.3299,59.5924],[2.3119,59.5968]]],[[[2.4343,59.6343],[2.4325,59.6424],[2.4209,59.6432],[2.4131,59.6369],[2.4165,59.624],[2.3806,59.6209],[2.38,59.6021],[2.4097,59.591],[2.4069,59.5957],[2.422,59.6],[2.4052,59.6022],[2.4113,59.6094],[2.4058,59.6129],[2.4265,59.6201],[2.4343,59.6343]]]]}},{"type":"Feature","properties":{"field":"Åsgard"},"geometry":{"type":"MultiPolygon","coordinates":[[[[6.4372,65.2382],[6.4092,65.2298],[6.3946,65.207],[6.3605,65.1937],[6.3241,65.1573],[6.2606,65.1144],[6.2529,65.0984],[6.2742,65.1029],[6.291,65.1248],[6.3056,65.1268],[6.3059,65.1367],[6.3265,65.1344],[6.3864,65.1939],[6.4375,65.2206],[6.441,65.2342],[6.4255,65.2371],[6.4372,65.2382]],[[6.3788,65.1993],[6.379,65.1995],[6.3809,65.2001],[6.3819,65.2006],[6.3832,65.2008],[6.3848,65.2015],[6.3862,65.2021],[6.3875,65.2026],[6.3878,65.2027],[6.388,65.2024],[6.3874,65.2018],[6.3871,65.2014],[6.386,65.2012],[6.3857,65.2006],[6.3841,65.1991],[6.3823,65.1989],[6.3801,65.1989],[6.3779,65.1989],[6.3777,65.1989],[6.3788,65.1993]]],[[[6.4382,65.2617],[6.4237,65.2595],[6.4439,65.2542],[6.4455,65.2614],[6.4382,65.2617]]],[[[6.4349,65.2672],[6.4413,65.2693],[6.4314,65.2868],[6.4148,65.2796],[6.4202,65.2673],[6.4349,65.2672]]]]}},{"type":"Feature","properties":{"field":"Yggdrasil"},"geometry":{"type":"MultiPolygon","coordinates":[[[[2.4538,59.7699],[2.4744,59.7883],[2.5005,59.7936],[2.5026,59.802],[2.4646,59.8142],[2.4445,59.8115],[2.4319,59.7779],[2.4538,59.7699]]],[[[2.6375,59.8223],[2.6026,59.8383],[2.5917,59.8331],[2.6094,59.8093],[2.6178,59.8171],[2.6176,59.8076],[2.6352,59.8165],[2.6241,59.7878],[2.6424,59.7999],[2.6461,59.8143],[2.6375,59.8223]]],[[[2.5573,59.8727],[2.5072,59.8883],[2.4902,59.8837],[2.487,59.8716],[2.5975,59.8514],[2.6188,59.8586],[2.6837,59.8519],[2.7001,59.8626],[2.6685,59.8751],[2.6016,59.8822],[2.6012,59.8751],[2.5573,59.8727]]]]}},{"type":"Feature","properties":{"field":"Yggdrasil"},"geometry":{"type":"MultiPolygon","coordinates":[[[[2.6506,60.0699],[2.622,60.086],[2.6163,60.0669],[2.6506,60.0699]]],[[[2.6176,60.0834],[2.5878,60.0924],[2.5834,60.0741],[2.6176,60.0834]]],[[[2.6216,60.0891],[2.5999,60.1053],[2.589,60.0954],[2.6216,60.0891]]],[[[2.5769,60.0958],[2.5878,60.1025],[2.5816,60.1096],[2.5863,60.118],[2.578,60.1219],[2.5635,60.1033],[2.5769,60.0958]]],[[[2.5449,60.1505],[2.5331,60.1515],[2.5661,60.1428],[2.5702,60.127],[2.5938,60.1305],[2.5872,60.1486],[2.5449,60.1505]]],[[[2.5895,60.1526],[2.6221,60.1726],[2.5901,60.1775],[2.5693,60.1597],[2.5754,60.1514],[2.5895,60.1526]]],[[[2.6268,60.2003],[2.6155,60.2051],[2.5932,60.1791],[2.6276,60.1758],[2.6423,60.1983],[2.6161,60.1953],[2.6268,60.2003]]],[[[2.5785,60.2055],[2.5505,60.2008],[2.577,60.186],[2.6023,60.1932],[2.5785,60.2055]]],[[[2.4822,60.2264],[2.4608,60.2164],[2.4574,60.2029],[2.4882,60.209],[2.4822,60.2264]]],[[[2.502,60.2306],[2.4848,60.2264],[2.4901,60.205],[2.5125,60.2238],[2.5136,60.2313],[2.502,60.2306]]],[[[2.5272,60.2466],[2.5055,60.2456],[2.4856,60.2313],[2.5172,60.2337],[2.5272,60.2466]]]]}},{"type":"Feature","properties":{"field":"Skarv"},"geometry":{"type":"MultiPolygon","coordinates":[[[[7.7416,65.8447],[7.7271,65.8443],[7.7125,65.832],[7.7122,65.8226],[7.6862,65.8077],[7.7357,65.8252],[7.7416,65.8447]]]]}},{"type":"Feature","properties":{"field":"Valhall"},"geometry":{"type":"MultiPolygon","coordinates":[[[[3.1782,56.725],[3.1713,56.7299],[3.1598,56.7163],[3.2009,56.7147],[3.1782,56.725]]],[[[3.119,56.7267],[3.0982,56.7347],[3.0911,56.7263],[3.0464,56.7208],[3.0902,56.6935],[3.0967,56.6808],[3.0901,56.6752],[3.118,56.6602],[3.1961,56.6634],[3.1583,56.678],[3.197,56.6826],[3.1888,56.6911],[3.1672,56.6869],[3.1798,56.6944],[3.1777,56.7011],[3.1155,56.7068],[3.0824,56.7176],[3.1307,56.7198],[3.119,56.7267]]]]}},{"type":"Feature","properties":{"field":"Yggdrasil"},"geometry":{"type":"MultiPolygon","coordinates":[[[[2.377,59.9812],[2.3891,59.9961],[2.3736,60.014],[2.3881,60.0253],[2.3775,60.0334],[2.3544,60.0162],[2.368,59.9824],[2.377,59.9812]]]]}},{"type":"Feature","properties":{"field":"Edvard Grieg"},"geometry":{"type":"MultiPolygon","coordinates":[[[[2.3064,58.9848],[2.2897,58.9885],[2.2879,58.9789],[2.2992,58.9808],[2.2894,58.9763],[2.2969,58.9663],[2.29,58.9625],[2.3023,58.9634],[2.3064,58.9848]]],[[[2.2775,58.9692],[2.287,58.978],[2.277,58.9937],[2.2685,58.9918],[2.2684,58.9706],[2.2775,58.9692]]]]}},{"type":"Feature","properties":{"field":"Norne"},"geometry":{"type":"MultiPolygon","coordinates":[[[[8.126,66.1356],[8.1132,66.1336],[8.0958,66.1161],[8.0663,66.1176],[8.028,66.0887],[7.9812,66.0697],[8.0146,66.0592],[7.9937,66.0458],[8.0472,66.0536],[8.096,66.0831],[8.1365,66.1282],[8.1365,66.1344],[8.126,66.1356]]]]}},{"type":"Feature","properties":{"field":"Aasta Hansteen"},"geometry":{"type":"MultiPolygon","coordinates":[[[[5.3965,67.0603],[5.2366,67.0261],[5.1958,67.007],[5.1867,66.9955],[5.2367,67.0086],[5.324,66.9975],[5.4241,67.0459],[5.3965,67.0603]]]]}},{"type":"Feature","properties":{"field":"Skarv"},"geometry":{"type":"MultiPolygon","coordinates":[[[[7.9162,66.0456],[7.9306,66.0534],[7.8899,66.0476],[7.8747,66.0358],[7.7658,66.0007],[7.7883,65.9988],[7.8304,66.0122],[7.8001,65.9998],[7.8112,65.9935],[7.8944,66.0152],[7.8934,66.0226],[7.9162,66.0456]]]]}},{"type":"Feature","properties":{"field":"Skarv"},"geometry":{"type":"MultiPolygon","coordinates":[[[[7.4234,65.8693],[7.3865,65.864],[7.2777,65.8188],[7.3934,65.8407],[7.4563,65.8687],[7.4234,65.8693]]]]}},{"type":"Feature","properties":{"field":"Sleipner"},"geometry":{"type":"MultiPolygon","coordinates":[[[[1.6455,58.6581],[1.6408,58.6649],[1.6287,58.6528],[1.6012,58.6502],[1.573,58.6331],[1.6526,58.6366],[1.6666,58.6484],[1.6455,58.6581]]]]}},{"type":"Feature","properties":{"field":"Åsgard"},"geometry":{"type":"MultiPolygon","coordinates":[[[[7.6861,64.5728],[7.6722,64.5825],[7.6571,64.5669],[7.6711,64.5569],[7.6653,64.5505],[7.671,64.5392],[7.679,64.5408],[7.6861,64.5728]]],[[[7.7452,64.5933],[7.7297,64.6073],[7.718,64.5872],[7.7394,64.5762],[7.7529,64.5846],[7.7452,64.5933]]],[[[7.6233,64.731],[7.6055,64.7931],[7.5975,64.7689],[7.6233,64.731]]],[[[7.6349,64.86],[7.6192,64.8591],[7.6215,64.8541],[7.6034,64.8417],[7.6037,64.8305],[7.6271,64.8345],[7.6367,64.8467],[7.6349,64.86]]],[[[7.362,64.9888],[7.3997,65.0012],[7.4381,65.037],[7.362,64.9888]]],[[[7.4182,65.1738],[7.4218,65.1611],[7.4142,65.1491],[7.4233,65.1437],[7.4124,65.1361],[7.417,65.1247],[7.4288,65.1345],[7.4296,65.1459],[7.4261,65.1681],[7.4182,65.1738]]]]}}]}